OBJECTID,PRKID,PRKNAME,PRKADDR,STREETNO,STREETDIR,STREETNM,STREETTYPE,STREETSUFF,CITY,STATE,zipcode,PRKTYPE,PRKCAT,PRKSTATUS,PRKDIST,PRKSIZE,PRKXCOORD,PRKYCOORD,PRKPHONE,PRKAGE,PRKADAACC,CITYCOUNCI,BOCC,PRKDATE,USERID,UPSIZE_TS,X,Y,LEASEDID,parklatitude,parklongitude
75,MACC,Matthews Community Center,100 E MCDOWELL ST,100,E,MCDOWELL,ST,,MATTHEWS,NC,28105,Town Park,General,Developed,South,,,,7043217275,,,,District 6,,,,1485035.915,500644.5184,Matthews,35.113161,-80.722521
66,HOBP,Holbrook Park,100 SHERWOOD DR,100,,SHERWOOD,DR,,HUNTERSVILLE,NC,28078,Town Park,General,Developed,North,,,,7047662220,,,,District 1,,,,1450161.494,610322.0658,Huntersville,35.412999,-80.845105
266,BJCC,Belle Johnston Community Center,1000 JOHNSTON DR,1000,,JOHNSTON,DR,,PINEVILLE,NC,28134,Recreation Center,RecCenter,Developed,South,,,,7048892400,,,,District 6,,,,1433803.316,488956.7933,Pineville,35.078633,-80.892896
40,HOWA,Howie Acres Park,1001 TREMBETH DR,1001, ,TREMBETH,DR, ,CHARLOTTE,NC,28205,Neighborhood,General,Developed,North,,,,9803141001,,,District 1,District 3,1998/07/28 00:00:00+00,,,1467294.476,550544.5533,Mecklenburg,35.250215,-80.785024
181,THRD,James Dennis Rash Park,1001 W 4TH ST EXT,1001,W,4TH,ST, ,CHARLOTTE,NC,28202,Neighborhood,General,Developed,Central,,,,9803141002,,,District 2,District 4,1998/07/28 00:00:00+00,,,1446096.741,544878.9741,Mecklenburg,35.232769,-80.855076
264,BALY,Bailey Rd,10020 BAILEY RD,10020, ,BAILEY,RD, ,CORNELIUS,NC,28031,Neighborhood,General,Undeveloped,North,,,,9803141001,,,,District 1,2017/01/10 00:00:00+00,,,1445354.768,625875.5319,Mecklenburg,35.455124,-80.863077
219,GCNP,Gar Creek Nature Preserve,10020 MCCOY RD,0, ,NO ADDRESS, , ,HUNTERSVILLE,NC,28078,Nature Preserve,General,Undeveloped,North,,,,9803141001,,,,District 1,2002/05/13 00:00:00+00,,,1437984.069,592017.1112,Mecklenburg,35.360651,-80.878756
153,BLTN,Ballantyne Park,10082 COMMUNITY HOUSE RD,0, ,NO ADDRESS, , ,CHARLOTTE,NC,28277,Community,General,Developed,South,,,,9803141003,,,District 7,District 6,2002/03/18 00:00:00+00,,,1452428.668,475004.0866,Mecklenburg,35.040791,-80.82885
212,WIND,Windsor Park,10150 NORTHEAST PY,10150,,NORTHEAST,PY,,MATTHEWS,NC,28105,Town Park,General,Developed,South,,,,7043217275,,,,District 6,,,,1489748.233,507423.4574,Matthews,35.131586,-80.707027
178,RMBL,Ramblewood Soccer Complex,10200 NATIONS FORD RD,10200, ,NATIONS FORD,RD, ,CHARLOTTE,NC,28273,Community,General,Developed,South,,,,9803141003,,,District 3,District 2,1998/07/28 00:00:00+00,,,1431192.579,504991.6223,Mecklenburg,35.123876,-80.906771
298,BERR,Berryhill Nature Preserve,10334 WALKERS FERRY RD,0, ,NO ADDRESS,TR, ,CHARLOTTE,NC,28214,Nature Preserve,General,Undeveloped,South,,,,9803141003,,,,District 2,2002/03/18 00:00:00+00,,,1406298.001,539308.1399,Mecklenburg,35.217503,-80.988752
122,RAMA,Rama Road Park,1035 RAMA RD,1035, ,RAMA,RD, ,CHARLOTTE,NC,28211,Neighborhood,General,Developed,South,,,,9803141003,,,District 5,District 5,1998/07/28 00:00:00+00,,,1470618.598,521106.1547,Mecklenburg,35.169554,-80.772036
200,CADI,The Effortless Golf Center,10401 CADILLAC ST,0, , , , ,PINEVILLE,NC,28134,Golf Course,Golf,Developed,South,,,,9803141003,,,,District 6,2009/01/02 00:00:00+00,,,1437564.629,495633.6694,Mecklenburg,35.096609,-80.879349
104,IDLE,Idlewild Road Park,10512 IDLEWILD RD,10512, ,IDLEWILD,RD, ,MINT HILL,NC,28105,Regional,General,Developed,South,,,,9803141003,,,,District 6,1998/07/28 00:00:00+00,,,1491924.957,519129.3077,Mecklenburg,35.163343,-80.702248
191,FVRP,Fairview Road Park,10601 FAIRVIEW RD,0, , , ,NO,CHARLOTTE,NC,28227,Regional,General,Undeveloped,South,,,,9803141003,,,,District 6,2015/03/12 00:00:00+00,,,1519394.126,521412.4059,Mecklenburg,35.173825,-80.608239
7,HACC,Huntersville Arts & Cultural Center,109 S OLD STATESVILLE RD,109,S,OLD STATESVILLE,RD,,HUNTERSVILLE,NC,28078,Town Park,General,Developed,North,,,,7047662220,,,,District 1,,,,1450988.262,609278.6448,Huntersville,35.410141,-80.84254
61,PERL,Pearl Street Park,1100 BAXTER ST,1100, ,BAXTER,ST, ,CHARLOTTE,NC,28204,Neighborhood,General,Under Construction,Central,,,,9803141002,,,District 1,District 4,1998/07/28 00:00:00+00,,,1451264.987,537295.9481,Mecklenburg,35.212647,-80.838006
245,ELZA,Elizabeth Park,1100 E TRADE ST,1100,E,TRADE,ST,NO,CHARLOTTE,NC,28204,Neighborhood,General,Developed,Central,,,,9803141002,,,District 1,District 4,2001/08/21 00:00:00+00,,,1452640.746,539523.4959,Mecklenburg,35.220069,-80.835008
21,CROS,Forest Pawtuckett Park,1102 ASHFORD ST,0, ,NO ADDRESS, , ,CHARLOTTE,NC,28214,Neighborhood,General,Developed,North,,,,9803141001,,,District 3,District 2,2003/07/11 00:00:00+00,,,1419429.849,556645.6972,Mecklenburg,35.263006,-80.944683
154,LTLP,Little Peoples Park,1120 HARRILL ST,1200, ,HARRILL,ST, ,CHARLOTTE,NC,28205,Neighborhood,General,Developed,Central,,,,9803141002,,,District 1,District 3,1998/07/28 00:00:00+00,,,1456404.896,543042.1736,Mecklenburg,35.228277,-80.820233
4,THMP,Thompson Park,1125 E 3RD ST,1125,E,3RD,ST,NO,CHARLOTTE,NC,28204,Neighborhood,General,Developed,Central,,,,9803141002,,,District 1,District 4,1998/09/02 00:00:00+00,,,1452180.288,538692.2129,Mecklenburg,35.216366,-80.833572
241,STMY,St. Marys Chapel,1129 E 3RD ST,1129,E,3RD,ST, ,CHARLOTTE,NC,28204,Event Venue,Venue,Developed,Central,,,,7043331235,,,District 1,District 4,1998/07/28 00:00:00+00,,,1452404.812,538524.2466,Mecklenburg,35.216194,-80.833156
74,FERL,Ferrelltown Nature Preserve,11355 ASBURY CHAPEL RD,11355,,ASBURY CHAPEL,RD,,HUNTERSVILLE,NC,28078,Nature Preserve,General,Undeveloped,North,,,,9803141001,,,,District 1,2019/11/19 10:00:08+00,,,1461125.098,599116.0029,Mecklenburg,35.382799,-80.808039
248,ELNC,Elon Recreation Center,11401 ARDREY KELL RD,11401, ,ARDREY KELL,RD, ,CHARLOTTE,NC,28277,Recreation Center,RecCenter,Developed,South,,,,9803141103,,,District 7,District 6,2008/01/16 00:00:00+00,,,1449679.655,467223.1742,Mecklenburg,35.019753,-80.838444
99,H521,Elon Homes Park,11435 ARDREY KELL RD,11435, ,ARDREY KELL,RD, ,CHARLOTTE,NC,28277,Regional,General,Developed,South,,,,9803141003,,,District 7,District 6,1998/10/06 00:00:00+00,,,1447621.319,468246.0488,Mecklenburg,35.022679,-80.844932
12,BAIL,Bailey Road Park,11536 BAILEY RD,11536,,BAILEY,RD,,CORNELIUS,NC,28031,Town Park,General,Developed,North,,,,7048926031,,,,District 1,,,,1450841,629579.9999,Cornelius,35.46587,-80.844422
229,HAYP,Haymarket Nature Preserve,11634 BROOKSHIRE BV,0, ,NO ADDRESS, , ,CHARLOTTE,NC,28214,Nature Preserve,General,Undeveloped,North,,,,9803141001,,,,District 1,2003/07/11 00:00:00+00,,,1415200.687,584912.5716,Mecklenburg,35.342724,-80.962842
231,HORT,Horticultural Maintenance Facility,11826 MALLARD CREEK RD,11826, ,MALLARD CREEK,RD, ,CHARLOTTE,NC,28269,Operational,Misc,Operational,North,,,,9803141001,,,District 4,District 3,1998/08/12 00:00:00+00,,,1476341.765,589065.7948,Mecklenburg,35.355969,-80.756136
52,FLTB,Flat Branch Park,11830 TOM SHORT RD,0, ,NO ADDRESS, , ,CHARLOTTE,NC,28277,Community,General,Developed,South,,,,9803141003,,,District 7,District 6,1998/10/06 00:00:00+00,,,1463068.514,476440.5535,Mecklenburg,35.046637,-80.794742
217,FBNP,Flat Branch Nature Preserve,11833 TOM SHORT RD,0, ,NO ADDRESS, , ,CHARLOTTE,NC,28277,Nature Preserve,General,Developed,South,,,,9803141003,,,District 7,District 6,2007/02/08 00:00:00+00,,,1463138.029,476484.2369,Mecklenburg,35.045791,-80.792855
94,HAPK,Huntersville Athletic Park,11836 VERHOEFF DR,0, , , , ,HUNTERSVILLE,NC,28078,Town Park,General,Developed,North,,,,7047662220,,,,District 1,1975/01/01 00:00:00+00,,,1450108.385,602332.909,Huntersville,35.391525,-80.843405
108,HARC,Huntersville Athletic Recreation Center,11836 VERHOEFF DR,11836,,VERHOEFF,DR,,HUNTERSVILLE,NC,28078,Recreation Center,RecCenter,Developed,North,,,,7044645520,,,,District 1,,,,1450524.521,602604.4424,Huntersville,35.391525,-80.843405
276,MTLD,Rozzelles Ferry Nature Preserve,11840 MOUNTAIN ISLAND BROOK LN,11840, ,MOUNTAIN ISLAND BROOK,LN, ,CHARLOTTE,NC,28214,Nature Preserve,General,Undeveloped,North,,,,9803141001,,,,District 1,2014/05/23 00:00:00+00,,,1412864.096,587349.7959,Mecklenburg,35.348255,-80.969171
62,BRRC,Bailey Road Recreation Center,11900 BAILEY RD,11900,,BAILEY,RD,,CORNELIUS,NC,28031,Recreation Center,RecCenter,Developed,North,,,,7048926031,,,,District 1,,,,1453247.659,630099.8807,Cornelius,35.467631,-80.837523
214,STMP,Stumptown Park,120 S TRADE ST,120,S,TRADE,ST,,MATTHEWS,NC,28105,Town Park,General,Developed,South,,,,7043217275,,,,District 6,,,,1484623.541,501289.9199,Matthews,35.115543,-80.723561
203,CREW,Crews Recreation Center,1201 CREWS RD,1201,,CREWS,RD,,MATTHEWS,NC,28105,Recreation Center,RecCenter,Developed,South,,,,7043217275,,,,District 6,,,,1485539.268,504885.0689,Matthews,35.125299,-80.720804
165,FRAZ,Frazier Park,1201 W 4TH ST EXT,1201,W,4TH,ST,EX,CHARLOTTE,NC,28202,Neighborhood,General,Developed,Central,,,,9803141002,,,District 2,District 4,1998/07/28 00:00:00+00,,,1445548.778,545017.7281,Mecklenburg,35.232566,-80.857935
5,AMSG,Alexander Middle School Gymnasium,12010 HAMBRIGHT RD,12010,,HAMBRIGHT,RD,,HUNTERSVILLE,NC,28078,Recreation Center,RecCenter,Developed,North,,,,7047662220,,,,District 1,,,,1452055.592,596972.0006,Huntersville,35.376014,-80.838061
182,TMCW,T.M. Winget Park,12025 WINGET RD,12025, ,WINGET,RD, ,CHARLOTTE,NC,28278,Regional,General,Developed,South,,,,9803141003,,,District 3,District 2,1998/07/28 00:00:00+00,,,1401277.841,508885.5819,Mecklenburg,35.131952,-81.002439
277,EALD,Eagles Landing Park,1204 EAGLES LANDING DR,0, ,NO ADDRESS, , ,CHARLOTTE,NC,28214,Neighborhood,General,Developed,North,,,,9803141001,,,District 3,District 2,2003/07/11 00:00:00+00,,,1425159.716,559031.7724,Mecklenburg,35.270573,-80.926258
29,CMGP,Camp Greene Park,1221 ALLEGHANY ST,1221, ,ALLEGHANY,ST, ,CHARLOTTE,NC,28208,Community,General,Developed,Central,,,,9803141002,,,District 3,District 2,1998/07/28 00:00:00+00,,,1435535.911,546692.186,Mecklenburg,35.236989,-80.887821
216,WGRC,T.M. Winget Recreation Center,12235 WINGET RD,0, , , , ,CHARLOTTE,NC,28278,Recreation Center,RecCenter,Developed,South,,,,9803141103,,,District 3,District 2,1994/10/17 00:00:00+00,,,1401928.452,508402.4325,Mecklenburg,35.13074,-81.000474
95,REVC,Revolution Park Sports Academy,1225 REMOUNT RD,1225, ,REMOUNT,RD, ,CHARLOTTE,NC,28208,Recreation Center,RecCenter,Developed,Central,,,,9803141116,,,District 3,District 2,1998/07/28 00:00:00+00,,,1438886.595,538088.9034,Mecklenburg,35.21373,-80.878589
64,MART,McDowell Arts Center,123 E MCDOWELL ST,123,E,MCDOWELL,ST,,MATTHEWS,NC,28105,Town Park,General,Developed,South,,,,7048479746,,,,District 6,,,,1484770.686,500742.6752,Matthews,35.113705,-80.722849
242,GRNP,Greenville Park,1232 SPRING ST,1401, ,POLK,ST, ,CHARLOTTE,NC,28206,Neighborhood,General,Developed,Central,,,,9803141002,,,District 2,District 2,1998/07/28 00:00:00+00,,,1449720.394,549291.0382,Mecklenburg,35.245097,-80.842869
300,LNCM,Lake Norman Charter Middle School Gymnasium,12435 OLD STATESVILLE RD,12435,,OLD STATESVILLE,RD,,HUNTERSVILLE,NC,28078,Recreation Center,RecCenter,Developed,North,,,,7047662220,,,,District 1,,,,1452996.215,602281.2067,Huntersville,35.390173,-80.835879
179,SHRM,Sherman Branch Nature Preserve,12501 ROCKY RIVER CHURCH RD,0, ,NO ADDRESS, , ,MINT HILL,NC,28215,Nature Preserve,General,Developed,North,,,,9803141001,,,,District 4,1998/10/06 00:00:00+00,,,1512680.496,545396.3159,Mecklenburg,35.237409,-80.632294
72,LNCH,Lake Norman Charter High School Gymnasium,12701 OLD STATESVILLE RD,12701,,OLD STATESVILLE,RD,,HUNTERSVILLE,NC,28078,Recreation Center,RecCenter,Developed,North,,,,7047662220,,,,District 1,,,,1452873.813,602745.9676,Huntersville,35.393081,-80.836068
286,MBTL,Mary Beaty Tot Lot,128 S MAIN ST,128,S,MAIN,ST,,DAVIDSON,NC,28036,Town Park,General,Developed,North,,,,7048923349,,,,District 1,,,,1449576.109,641448.4585,Davidson,35.498396,-80.849113
51,ABBT,Abbott Park,1300 SPRUCE ST,1300, ,SPRUCE,ST, ,CHARLOTTE,NC,28203,Neighborhood,General,Developed,Central,,,,9803141002,,,District 3,District 2,2007/09/13 00:00:00+00,,,1441233.649,538472.5893,Mecklenburg,35.214707,-80.871224
293,PROG,Progress Park,1301 PARKWOOD AV,1301, ,PARKWOOD,AV, ,CHARLOTTE,NC,28205,Neighborhood,General,Developed,Central,,,,9803141002,,,District 1,District 3,1998/07/28 00:00:00+00,,,1458838.967,544717.0293,Mecklenburg,35.233365,-80.812472
18,PNVP,Pineville Park,1310 LAKEVIEW DR,0, ,NO ADDRESS, , ,PINEVILLE,NC,28134,Community,General,Undeveloped,South,,,,9803141003,,,,District 6,1998/09/18 00:00:00+00,,,1431565.441,488079.8865,Mecklenburg,35.076447,-80.903971
283,SHLD,Sheffield Park,1311 TARRINGTON AV,1311, ,TARRINGTON,AV, ,CHARLOTTE,NC,28205,Neighborhood,General,Developed,South,,,,9803141003,,,District 5,District 4,1998/07/28 00:00:00+00,,,1472235.77,534645.3593,Mecklenburg,35.206368,-80.768059
117,RRAP,River Run Athletic Park,13130 ROBERT WALKER DR,13130,,ROBERT WALKER,DR,,DAVIDSON,NC,28036,Town Park,General,Developed,North,,,,7048923349,,,,District 1,,,,1458398.859,633774.5646,Davidson,35.477767,-80.818196
41,LSCG,Little Sugar Creek Community Garden,1319 N ALEXANDER ST,1319,N,ALEXANDER,ST,,CHARLOTTE,NC,28206,Community Garden,Garden,Developed,Central,,,,9803141000,,,District 1,District 3,2018/08/24 00:00:00+00,,,1455765.753,544551.4336,Mecklenburg,35.23259,-80.822566
325,PUHU,Purser-Hulsey Park,13201 PHILLIPS RD,13201,,PHILLIPS,RD,,MATTHEWS,NC,28105,Town Park,General,Developed,South,,,,7043217275,,,,District 6,,,,1496345.922,506074.6226,Matthews,35.128799,-80.684581
209,BRMS,Bradley Middle School,13345 BEATTIES FORD RD,13345,,BEATTIES FORD,RD,,HUNTERSVILLE,NC,28078,Town Park,General,Developed,North,,,,7047662220,,,,District 1,,,,1426810.056,604835.7067,Huntersville,35.396775,-80.924426
47,EVER,Evergreen Nature Preserve,1336 NORLAND RD,0, ,NO ADDRESS, , ,CHARLOTTE,NC,28205,Nature Preserve,General,Developed,South,,,,9803141003,,,District 5,District 4,1998/12/14 00:00:00+00,,,1468972.751,535558.5032,Mecklenburg,35.208311,-80.77761
218,BESG,Barnette Elementary School Gymnasium,13659 BEATTIES FORD RD,13659,,BEATTIES FORD,RD,,HUNTERSVILLE,NC,28078,Recreation Center,RecCenter,Developed,North,,,,7047662220,,,,District 1,,,,1426486.266,606130.4656,Huntersville,35.399909,-80.924846
272,CANP,Richard Barry Memorial Park,13707 BEATTIES FORD RD,0, ,NO ADDRESS, , ,HUNTERSVILLE,NC,28078,Town Park,General,Developed,North,,,,7047662220,,,,District 1,2002/04/03 00:00:00+00,,,1426544.381,606545.5214,Huntersville,35.400801,-80.927536
91,CLKD,Eastfield Park,13729 EASTFIELD RD,0, ,NO ADDRESS, , ,HUNTERSVILLE,NC,28078,Regional,General,Undeveloped,North,,,,9803141001,,,District 4,District 1,1998/10/09 00:00:00+00,,,1470575.237,602282.2271,Mecklenburg,35.395924,-80.778817
234,DBWC,David B. Waymer Recreation & Senior Center,14008 HOLBROOKS RD,14008,,HOLBROOKS,RD,,HUNTERSVILLE,NC,28078,Recreation Center,RecCenter,Developed,North,,,,7047662220,,,,District 1,2020/06/01 10:35:46+00,,,1453025.514,605191.3804,Huntersville,35.398851,-80.835472
326,ARMY,Armory Training Center,1418 ARMORY DR,1418,,ARMORY,DR,,CHARLOTTE,NC,28204,Operational,Misc,Operational,Central,,,,7043362802,,,District 1,District 4,1997/09/29 00:00:00+00,,,1454807.168,539005.2424,Mecklenburg,35.216772,-80.825454
128,DBWP,David B. Waymer Park,14200 HOLBROOKS RD,302, ,HOLBROOKS,RD, ,HUNTERSVILLE,NC,28078,Town Park,General,Developed,North,,,,7047662220,,,,District 1,2003/07/11 00:00:00+00,,,1453280.177,605295.32,Huntersville,35.398899,-80.834378
183,PRES,Pressley Road Park,1431 PRESSLEY RD,1431, ,PRESSLEY,RD,NO,CHARLOTTE,NC,28217,Neighborhood,General,Developed,Central,,,,9803141002,,,District 3,District 2,1998/07/28 00:00:00+00,,,1434818.714,531932.1646,Mecklenburg,35.196927,-80.891322
136,RHMG,Robert Heywood Morrison Garden,1445 HARDING PL,1445, ,HARDING,PL, ,CHARLOTTE,NC,28204,Flower Garden,Garden,Developed,Central,,,,9803141002,,,District 1,District 4,,,,1451247,535080.9999,Mecklenburg,35.206289,-80.837186
332,OEHP,Oehler Nature Preserve,14511 HUNTERSVILLE-CONCORD RD,0, , , ,NO,CHARLOTTE,NC,28078,Nature Preserve,General,Undeveloped,North,,,,9803141001,,,,District 1,2003/07/11 00:00:00+00,,,1463392.242,610821.6574,Mecklenburg,35.401071,-80.869457
222,TCES,Torrence Creek Elementary School,14550 RANSON RD,14550,,RANSON,RD,,HUNTERSVILLE,NC,28078,Town Park,General,Developed,North,,,,7047662220,,,,District 1,,,,1441909.03,610500.3947,Huntersville,35.412102,-80.872591
290,TCEM,Torrence Creek Elementary Multipurpose Room,14550 RANSON RD,14550,,RANSON,RD,,HUNTERSVILLE,NC,28078,Town Park,General,Developed,North,,,,7047662220,,,,District 1,,,,1441886.374,610058.6416,Huntersville,35.412102,-80.872591
171,ENDP,Enderly Park,1501 ENDERLY RD,1501, ,ENDERLY,RD, ,CHARLOTTE,NC,28208,Neighborhood,General,Developed,Central,,,,9803141002,,,District 3,District 2,1998/07/28 00:00:00+00,,,1437471.946,547784.5067,Mecklenburg,35.240008,-80.882809
280,TSRC,Tom Sykes Recreation Center,1501 EUCLID AV,1501, ,EUCLID,AV, ,CHARLOTTE,NC,28203,Recreation Center,RecCenter,Developed,Central,,,,9803141113,,,District 1,District 4,2007/02/08 00:00:00+00,,,1446771.103,537409.2358,Mecklenburg,35.212386,-80.852208
305,LCCP,L.C. Coleman Park,1501 MCDONALD ST,1501, ,MCDONALD,ST, ,CHARLOTTE,NC,28216,Neighborhood,General,Developed,Central,,,,9803141002,,,District 2,District 2,1998/11/06 00:00:00+00,,,1444327.015,554187.1161,Mecklenburg,35.257224,-80.861034
228,COOK,Cook Park,15010 ERVIN COOK RD,0, , , ,NO,HUNTERSVILLE,NC,28078,Town Park,General,Undeveloped,North,,,,7047662220,,,,District 1,2005/12/08 00:00:00+00,,,1435257.208,613461.8705,Huntersville,35.421051,-80.895183
105,WADD,Waddell Street Park,1505 WADDELL ST,1505, ,WADDELL,ST, ,CHARLOTTE,NC,28216,Neighborhood,General,Developed,Central,,,,9803141002,,,District 2,District 2,1998/07/28 00:00:00+00,,,1448839.995,552887.3995,Mecklenburg,35.254451,-80.846122
32,CLAN,Clanton Park,1520 CLANTON RD,1520, ,CLANTON,AV, ,CHARLOTTE,NC,28217,Community,General,Developed,Central,,,,9803141002,,,District 3,District 2,1998/07/28 00:00:00+00,,,1434491.148,536050.465,Mecklenburg,35.20712,-80.89183
158,ARGC,Arbor Glen Outreach Center,1520 CLANTON RD,1520, ,CLANTON,RD, ,CHARLOTTE,NC,28217,Recreation Center,RecCenter,Developed,Central,,,,9803141110,,,District 3,District 2,2002/04/03 00:00:00+00,,,1434541.767,535919.8546,Mecklenburg,35.20712,-80.89183
252,JATC,Jeff Adams Tennis Center,1520 W TYVOLA RD,1200,W,TYVOLA,RD, ,CHARLOTTE,NC,28217,Tennis Center,Sports,Developed,South,,,,7045293273,,,District 3,District 2,1998/07/28 00:00:00+00,,,1430324.924,522928.3603,Mecklenburg,35.172212,-80.903279
6,COPP,Copperhead Island,15200 SOLDIER RD,15200, ,SOLDIER,RD, ,CHARLOTTE,NC,28278,Nature Preserve,General,Developed,South,,,,9803141003,,,,District 2,1998/07/28 00:00:00+00,,,1394440.26,501026.6419,Mecklenburg,35.108454,-81.025089
49,MCDL,McDowell Nature Preserve,15222 YORK RD,15222, ,YORK,RD, ,CHARLOTTE,NC,28278,Nature Preserve,General,Developed,South,,,,9803141128,,,,District 2,1998/07/28 00:00:00+00,,,1394705.428,495414.2011,Mecklenburg,35.0961,-81.023137
324,MDNC,McDowell Nature Center,15222 YORK RD,15222,S,YORK,RD, ,CHARLOTTE,NC,28278,Nature Center,General,Developed,South,,,,9803141128,,,,District 2,2016/07/06 00:00:00+00,,,1395753.308,497445.4699,Mecklenburg,35.0961,-81.023137
243,RGLF,Harry L. Jones Sr. Golf Course,1525 W TYVOLA RD,1525,W,TYVOLA,RD, ,CHARLOTTE,NC,28217,Golf Course,Golf,Developed,South,,,,9803141003,,,District 3,District 2,1998/07/28 00:00:00+00,,,1429241.28,524383.1284,Mecklenburg,35.174024,-80.910699
111,PALI,York Road Palisades Park,15321 YORK RD,0, , , , ,CHARLOTTE,NC,28278,Neighborhood,General,Developed,South,,,,9803141003,,,,District 6,2015/07/07 00:00:00+00,,,1394552.993,495279.6432,Mecklenburg,35.0937,-81.02612
70,RSPK,Renaissance Park,1536 W TYVOLA RD,1536,W,TYVOLA,RD, ,CHARLOTTE,NC,28217,Regional,General,Developed,South,,,,9803141003,,,District 3,District 2,2002/02/01 00:00:00+00,,,1429340.235,524412.7907,Mecklenburg,35.179826,-80.908716
28,DBWF,David B. Waymer Aeromodeller Park,15401 HOLBROOKS RD,15401, ,HOLBROOKS,RD, ,HUNTERSVILLE,NC,28078,Regional,General,Developed,North,,,,9803141001,,,,District 1,1998/07/28 00:00:00+00,,,1458548.653,606108.8939,Mecklenburg,35.401907,-80.816966
23,STVC,Stevens Creek Nature Center,15700 THOMPSON RD,15700,,THOMPSON,RD,,MINT HILL,NC,28227,Nature Center,General,Developed,South,,,,9803142526,,,,District 6,2020/06/01 11:04:56+00,,,1508713.554,511563.5478,Mecklenburg,35.144321,-80.645269
90,STVN,Stevens Creek Nature Preserve,15700 THOMPSON RD,0, ,NO ADDRESS, , ,MINT HILL,NC,28227,Nature Preserve,General,Developed,South,,,,9803141003,,,,District 6,1998/10/06 00:00:00+00,,,1507866.416,512614.9737,Mecklenburg,35.144321,-80.645269
271,BLYT,Blythe Landing Park,15901 N C 73 HY,15901, ,NC 73,HY, ,HUNTERSVILLE,NC,28078,Community,General,Developed,North,,,,9803141001,,,,District 1,2007/09/11 00:00:00+00,,,1432786.65,618983.9881,Mecklenburg,35.433614,-80.907157
312,JRNP,Jetton Road Neighborhood Park,16000 JETTON RD,16000,,JETTON,RD,,CORNELIUS,NC,28031,Town Park,General,Developed,North,,,,7048926031,,,,District 1,,,,1422973.346,633131.2948,Cornelius,35.474232,-80.939099
255,LTRC,Robert L. Smith Park,1604 LITTLE ROCK RD,0, ,NO ADDRESS, , ,CHARLOTTE,NC,28214,Regional,General,Developed,North,,,,9803141001,,,District 3,District 2,1998/09/02 00:00:00+00,,,1420685.098,553808.957,Mecklenburg,35.257248,-80.944458
80,NMPK,North Mecklenburg Park,16131 OLD STATESVILLE RD,16131, ,OLD STATESVILLE,RD, ,HUNTERSVILLE,NC,28078,Town Park,General,Developed,North,,,,7047662220,,,,District 1,1998/07/28 00:00:00+00,,,1450832.798,617750.0735,Huntersville,35.436314,-80.848503
190,SQLP,Squirrel Lake Park,1631 PLEASANT PLAINS RD,1631,,PLEASANT PLAINS,RD,,MATTHEWS,NC,28105,Town Park,General,Developed,South,,,,7043217275,,,,District 6,,,,1484177.349,495114.8623,Matthews,35.099616,-80.72288
30,RVRP,Riverside Drive Park,1640 RIVERSIDE DR,0, , , ,NO,CHARLOTTE,NC,28214,Community,General,Undeveloped,North,,,,9803141001,,,,District 1,2017/01/10 00:00:00+00,,,1408142.75,576874.0834,Mecklenburg,35.318441,-80.984808
310,WHIT,White Park,16500 DAVIDSON-CONCORD RD,0, , , ,NO,DAVIDSON,NC,28078,Town Park,General,Undeveloped,North,,,,7048923349,,,,District 1,2008/04/21 00:00:00+00,,,1469411.522,621889.8666,Davidson,35.447206,-80.781912
107,NATM,Discovery Place Nature Museum,1658 STERLING RD,1658, ,STERLING,RD, ,CHARLOTTE,NC,28209,Museum,Museum,Developed,Central,,,,7043726261,,,District 1,District 5,1998/07/28 00:00:00+00,,,1449490.063,528492.2097,Discovery Place,35.188191,-80.843754
285,CDHP,R.C. Bradford Park,17005 DAVIDSON-CONCORD RD,0, ,NO ADDRESS, , ,HUNTERSVILLE,NC,28078,Town Park,General,Developed,North,,,,7047662220,,,,District 1,2007/07/09 00:00:00+00,,,1466888.484,622859.8956,Huntersville,35.448535,-80.790803
174,BRYT,Bryant Park,1701 W MOREHEAD ST,1701,W,MOREHEAD,ST, ,CHARLOTTE,NC,28208,Neighborhood,General,Developed,Central,,,,9803141002,,,District 3,District 2,2002/03/18 00:00:00+00,,,1441724.342,543159.2186,Mecklenburg,35.227007,-80.870392
19,UNIV,University Meadows Park,1705 PAVILION BV,0, , , ,NO,CHARLOTTE,NC,28262,Neighborhood,General,Undeveloped,North,,,,9803141001,,,District 4,District 3,1998/07/28 00:00:00+00,,,1489071.062,573532.3495,Mecklenburg,35.313542,-80.713158
149,KING,Wilmore Centennial Park at Southend,1711 S TRYON ST,1711,S,TRYON,ST, ,CHARLOTTE,NC,28203,Neighborhood,General,Undeveloped,Central,,,,9803141002,,,District 3,District 2,2012/05/17 00:00:00+00,,,1444332.626,538160.8159,Mecklenburg,35.214314,-80.860372
93,SVCT,Southview Recreation Center,1720 VILMA ST,1720, ,VILMA,ST, ,CHARLOTTE,NC,28208,Recreation Center,RecCenter,Developed,Central,,,,9803141105,,,District 3,District 2,1999/04/29 00:00:00+00,,,1427424.507,537420.9466,Mecklenburg,35.211345,-80.916885
35,STHW,Southwest Park,1729 VILMA ST,1729, ,VILMA,ST,NO,CHARLOTTE,NC,28203,Community,General,Developed,Central,,,,9803141002,,,District 3,District 2,1999/04/01 00:00:00+00,,,1427454.676,537079.5333,Mecklenburg,35.210758,-80.916509
42,WBNP,West Branch Nature Preserve,17439 SUMMERS WALK BV,0, , , ,NO,DAVIDSON,NC,28036,Nature Preserve,General,Developed,North,,,,9803141001,,,,District 1,2008/10/31 00:00:00+00,,,1472027.475,624495.3751,Mecklenburg,35.454233,-80.774412
37,CAPP,Capps Park,17501 MCKEE RD,0, , , ,NO,CHARLOTTE,NC,28278,Community,General,Undeveloped,South,,,,9803141003,,,,District 6,2003/07/11 00:00:00+00,,,1395719.146,483682.651,Mecklenburg,35.061898,-81.019137
297,ROBB,Robbins Park,17738 WEST CATAWBA AV,0, , , , ,CORNELIUS,NC,28031,Town Park,General,Developed,North,,,,7048926031,,,,District 1,2017/07/24 00:00:00+00,,,1437707.001,626301.9992,Cornelius,35.456187,-80.888315
151,MOEP,Merry Oaks Park,1806 MERRY OAKS RD,0, , , , ,CHARLOTTE,NC,28205,Neighborhood,General,Developed,Central,,,,9803141002,,,District 1,District 4,1998/10/12 00:00:00+00,,,1466732.022,539660.225,Mecklenburg,35.219695,-80.785581
321,BUTL,Butler High School Tennis Courts,1810 MATTHEWS-MINT HILL RD,1810,,MATTHEWS-MINT HILL,RD,,MATTHEWS,NC,28105,Town Park,General,Developed,South,,,,7043217275,,,,District 6,,,,1493681.956,503064.3453,Matthews,35.120559,-80.69122
244,NMRC,North Regional Recreation Center,18121 OLD STATESVILLE RD,0, , , , ,CORNELIUS,NC,28031,Recreation Center,RecCenter,Undeveloped,North,,,,9803141001,,,,District 1,2019/01/15 00:00:00+00,,,1450977.928,627125.5129,Mecklenburg,35.45765,-80.8474
175,LHTP,Lincoln Heights Park,1819 CATHERINE SIMMONS AV,0, ,NO ADDRESS, , ,CHARLOTTE,NC,28216,Neighborhood,General,Developed,Central,,,,9803141002,,,District 2,District 3,1998/10/12 00:00:00+00,,,1447992.449,555882.6367,Mecklenburg,35.263215,-80.849216
144,FRED,Fred Alexander Park,1832 GRIERS GROVE RD,1832, ,GRIERS GROVE,RD, ,CHARLOTTE,NC,28216,Neighborhood,General,Developed,North,,,,9803141001,,,District 2,District 2,1998/07/28 00:00:00+00,,,1445217.181,563028.3556,Mecklenburg,35.281487,-80.859246
240,RAMS,Ramsey Creek Park,18445 NANTZ RD,18445, ,NANTZ,RD, ,CORNELIUS,NC,28078,Community,General,Developed,North,,,,9803141001,,,,District 1,2008/05/14 00:00:00+00,,,1435742.006,630032.3165,Mecklenburg,35.465995,-80.898365
308,NSLP,North & South Lawn Park,185 HARPER LEE ST,185,,HARPER LEE,ST,,DAVIDSON,NC,28036,Town Park,General,Developed,North,,,,7048923349,,,,District 1,,,,1455264.528,640482.7073,Davidson,35.496156,-80.830245
210,YCPP,Yacht Club Park Playground,18625 HARBOR LIGHT BV,18625,,HARBOR LIGHT,BV,,CORNELIUS,NC,28031,Town Park,General,Developed,North,,,,7048926031,,,,District 1,,,,1424740.222,631157.3308,Cornelius,35.468837,-80.932407
88,GOGP,Glen Oak Green Park,18905 COACHMAN'S TRACE,18905,,COACHMAN'S TRACE,,,CORNELIUS,NC,28031,Town Park,General,Developed,North,,,,7048926031,,,,District 1,,,,1446631.825,629158.7836,Cornelius,35.464493,-80.85905
146,PLCP,Plum Creek Park,18928 BARTLETTE CREEK DR,18928,,BARTLETTE CREEK,DR,,DAVIDSON,NC,28036,Town Park,General,Developed,North,,,,7048923349,,,,District 1,,,,1456980.914,632326.2737,Davidson,35.474039,-80.82353
323,JPLN,Jetton Park,19000 JETTON RD,19000, ,JETTON,RD, ,CORNELIUS,NC,28078,Regional,General,Developed,North,,,,9803141001,,,,District 1,1998/07/28 00:00:00+00,,,1434814.351,633583.2008,Mecklenburg,35.475749,-80.898636
193,JHWP,James Hoyt Wilhelm Park,19018 SMITH CR,19018,,SMITH,CR,,CORNELIUS,NC,28031,Town Park,General,Developed,North,,,,7048926031,,,,District 1,,,,1444958.73,634910.9353,Cornelius,35.480885,-80.864699
22,PVLY,Pine Valley Park,1910 LONGLEAF DR,1910, ,LONGLEAF,DR, ,CHARLOTTE,NC,28210,Neighborhood,General,Developed,South,,,,9803141003,,,District 6,District 5,2000/08/18 00:00:00+00,,,1439096.096,500866.4952,Mecklenburg,35.110945,-80.872529
83,OLRC,Ivory-Baker Recreation Center,1920 STROUD PARK CT,1295, ,EUREKA,ST, ,CHARLOTTE,NC,28206,Recreation Center,RecCenter,Developed,Central,,,,9803141112,,,District 2,District 2,2008/02/26 00:00:00+00,,,1450576.282,550968.1707,Mecklenburg,35.249841,-80.840463
113,BDHP,Beaver Dam Historic Park and House,19600 DAVIDSON-CONCORD RD,19600,,DAVIDSON-CONCORD,RD,,DAVIDSON,NC,28036,Town Park,General,Developed,North,,,,7044175884,,,,District 1,,,,1458860.047,632966.9564,Davidson,35.475579,-80.817657
284,SMTP,Smithville Park,19710 FERRY ST,19710,S,FERRY,ST,,CORNELIUS,NC,28031,Town Park,General,Developed,North,,,,7048926031,,,,District 1,,,,1443478.878,636031.8814,Cornelius,35.482718,-80.868747
167,CART,Cornelius Arts Center,19725 OAK ST,19725,,OAK,ST,,CORNELIUS,NC,28031,Town Park,General,Developed,North,,,,7048968823,,,,District 1,,,,1446331.218,635184.7509,Cornelius,35.480526,-80.860055
157,COUL,Coulwood Park,198 COULWOOD PARK DR,198, ,COULWOOD PARK,DR, ,CHARLOTTE,NC,28214,Community,General,Developed,North,,,,9803141001,,,District 2,District 2,1998/07/28 00:00:00+00,,,1421296.362,571867.1364,Mecklenburg,35.299984,-80.9404
205,FIVE,Five Points Park,200 FRENCH ST,200, ,FRENCH,ST,NO,CHARLOTTE,NC,28216,Neighborhood,General,Developed,Central,,,,9803141002,,,District 2,District 2,1998/07/28 00:00:00+00,,,1444767.37,550517.4028,Mecklenburg,35.24807,-80.860299
207,HESG,Huntersville Elementary School Gymnasium,200 GILEAD RD,200,,GILEAD,RD,,HUNTERSVILLE,NC,28078,Recreation Center,RecCenter,Developed,North,,,,7047662220,,,,District 1,,,,1449828.165,609956.6032,Huntersville,35.411437,-80.84695
322,HEMS,Huntersville Elementary School,200 GILEAD RD,200,,GILEAD,RD,,HUNTERSVILLE,NC,28078,Town Park,General,Developed,North,,,,7047662220,,,,District 1,,,,1450080.015,610140.5695,Huntersville,35.411437,-80.84695
59,RAND,Randolph Road Park,201 BILLINGSLEY RD,201, ,BILLINGSLEY,RD, ,CHARLOTTE,NC,28205,Community,General,Developed,Central,,,,9803141002,,,District 1,District 4,1998/07/28 00:00:00+00,,,1459459.577,529232.8006,Mecklenburg,35.191815,-80.809067
9,UNCC,Kirk Farm Fields Park,201 E MALLARD CREEK CHURCH RD,201,E,MALLARD CREEK CHURCH,RD, ,CHARLOTTE,NC,28262,Community,General,Developed,North,,,,9803141001,,,District 4,District 3,1998/07/28 00:00:00+00,,,1483260.637,576128.4647,Mecklenburg,35.320977,-80.731934
177,HVET,Veterans Park,201 HUNTERSVILLE-CONCORD RD,201,,HUNTERSVILLE-CONCORD,RD,,HUNTERSVILLE,NC,28078,Town Park,General,Developed,North,,,,7047662220,,,,District 1,,,,1451419.845,609620.1241,Huntersville,35.411142,-80.841263
192,WOOD,Double Oaks Family Aquatic Center,2014 STATESVILLE AV,2014, ,STATESVILLE,AV, ,CHARLOTTE,NC,28206,Aquatic Center,Sports,Developed,Central,,,,7043340308,,,District 1,District 3,2017/01/10 00:00:00+00,,,1451993.07,550910.3955,Mecklenburg,35.249896,-80.835379
103,WAHP,Walter Henderson Park,20214 TAILWIND LN,20214,,TAILWIND,LN,,CORNELIUS,NC,28031,Town Park,General,Developed,North,,,,7048926031,,,,District 1,,,,1435373.449,638517.8675,Cornelius,35.489528,-80.896465
46,ABER,Abernathy Park,205 GLENDALE DR,205,,GLENDALE,DR,,HUNTERSVILLE,NC,28078,Town Park,General,Developed,North,,,,7047662220,,,,District 1,,,,1452410.1,612667.1392,Huntersville,35.419346,-80.838062
314,BRNH,Rocky River Bluff Nature Preserve,20532 SHEARER RD,0, ,NO ADDRESS, , ,DAVIDSON,NC,28036,Nature Preserve,General,Developed,North,,,,9803141001,,,,District 1,2003/07/11 00:00:00+00,,,1467044.126,637081.3759,Mecklenburg,35.489467,-80.786609
36,MIDW,Midwood Park,2100 WILHELMINA AV,2100, ,WILHELMINA,AV, ,CHARLOTTE,NC,28205,Neighborhood,General,Developed,Central,,,,9803141002,,,District 1,District 4,1998/07/28 00:00:00+00,,,1461718.342,543588.4661,Mecklenburg,35.22948,-80.802348
188,FIFP,Fisher Farm Park,21135 FISHER RD,21135,,FISHER,RD,,DAVIDSON,NC,28036,Town Park,General,Developed,North,,,,7048923349,,,,District 1,,,,1465396.678,639921.6245,Davidson,35.494878,-80.796456
246,ADAJ,Ada Jenkins Athletic Field,212 GAMBLE ST,212,,GAMBLE,ST,,DAVIDSON,NC,28036,Town Park,General,Developed,North,,,,7049409641,,,,District 1,,,,1448256.883,641544.6432,Davidson,35.498932,-80.853763
320,LEGP,Legion Park,21214 LEGION ST,21214,,LEGION,ST,,CORNELIUS,NC,28031,Town Park,General,Developed,North,,,,7048926031,,,,District 1,,,,1446308.277,637457.2412,Cornelius,35.487004,-80.860143
333,TRCP,Torrence Chapel Park,21309 TORRENCE CHAPEL RD,21309,,TORRENCE CHAPEL,RD,,CORNELIUS,NC,28031,Town Park,General,Developed,North,,,,7048926031,,,,District 1,,,,1440746.589,639443.9233,Cornelius,35.492106,-80.878667
48,VETS,Veterans Park,2136 CENTRAL AV,2136, ,CENTRAL,AV, ,CHARLOTTE,NC,28205,Neighborhood,General,Developed,Central,,,,9803141002,,,District 1,District 4,1998/07/28 00:00:00+00,,,1461194.792,539774.3774,Mecklenburg,35.217761,-80.804968
262,IRWN,Rays Splash Planet,215 N SYCAMORE ST,215,N,SYCAMORE,ST, ,CHARLOTTE,NC,28202,Aquatic Center,Sports,Developed,Central,,,,9803144729,,,District 2,District 4,1998/10/06 00:00:00+00,,,1447182.965,546670.2976,Mecklenburg,35.238094,-80.851339
114,COLN,Colonial Park,219 PROVIDENCE RD,219, ,PROVIDENCE,RD, ,CHARLOTTE,NC,28207,Neighborhood,General,Developed,Central,,,,9803141002,,,District 1,District 5,1998/07/28 00:00:00+00,,,1455178.719,535075.1338,Mecklenburg,35.206589,-80.823709
89,TRYH,Tryon Hills Park,220 W 30TH ST,220,W,30TH,ST, ,CHARLOTTE,NC,28206,Neighborhood,General,Developed,Central,,,,9803141002,,,District 1,District 3,1998/07/28 00:00:00+00,,,1457376.334,550990.9483,Mecklenburg,35.250555,-80.817381
327,HUNT,Huntingtowne Farms Park,2200 RAMBLEWOOD LN,2400, ,RAMBLEWOOD,LN, ,CHARLOTTE,NC,28210,Community,General,Developed,South,,,,9803141003,,,District 6,District 5,1998/07/28 00:00:00+00,,,1443153.452,506777.1969,Mecklenburg,35.127527,-80.86335
236,AFRM,Abersham Park,22031 SHEARER RD,22031, ,SHEARER,RD, ,DAVIDSON,NC,28036,Town Park,General,Developed,North,,,,7048923349,,,,District 1,2008/04/17 00:00:00+00,,,1465333.359,644219.2039,Davidson,35.506512,-80.796503
267,ANSP,Anita Stroud Park,2215 DOUBLE OAKS RD,2215, ,DOUBLE OAKS,RD, ,CHARLOTTE,NC,28206,Neighborhood,General,Developed,Central,,,,9803141002,,,District 2,District 2,2007/04/20 00:00:00+00,,,1450370.587,551900.0398,Mecklenburg,35.252655,-80.842249
139,MDLP,Marion Diehl Park,2219 TYVOLA RD,2219, ,TYVOLA,RD, ,CHARLOTTE,NC,28210,Community,General,Developed,South,,,,9803141003,,,District 6,District 5,1998/07/28 00:00:00+00,,,1444771.988,518024.4086,Mecklenburg,35.160467,-80.857624
172,MDLC,Marion Diehl Recreation Center & Pool,2219 TYVOLA RD,2219, ,TYVOLA,RD, ,CHARLOTTE,NC,28210,Recreation Center,RecCenter,Developed,South,,,,9803141003,,,District 6,District 5,1998/07/28 00:00:00+00,,,1444863.519,518404.9716,Mecklenburg,35.160467,-80.857624
232,CHTY,Chantilly Park,222 WYANOKE AV,222, ,WYANOKE,AV, ,CHARLOTTE,NC,28205,Neighborhood,General,Developed,Central,,,,9803141002,,,District 1,District 4,1998/07/28 00:00:00+00,,,1459684.67,535404.7833,Mecklenburg,35.207352,-80.808592
289,TYVS,Tyvola Senior Center,2225 TYVOLA RD,0, , , , ,CHARLOTTE,NC,28210,Senior Center,SeniorCenter,Developed,South,,,,9803141320,,,District 6,District 5,1998/11/17 00:00:00+00,,,1444246.537,518360.6952,Mecklenburg,35.160122,-80.85949
126,FRND,Friendship Sportsplex,2310 CINDY LN,2310, ,CINDY,LN, ,CHARLOTTE,NC,28216,Regional,General,Developed,North,,,,9803141001,,,,District 2,,,,1447108.335,563216.1885,Mecklenburg,35.283151,-80.852096
282,TNGP,Town Green Park,232 MATTHEWS STATION ST,232,,MATTHEWS STATION,ST,,MATTHEWS,NC,28105,Town Park,General,Developed,South,,,,7043217275,,,,District 6,,,,1486048.942,501683.885,Matthews,35.115949,-80.718409
124,COWW,Cowans Ford Wildlife Refuge,2329 NECK RD,0, ,NO ADDRESS, , ,HUNTERSVILLE,NC,28078,Nature Preserve,General,Developed,North,,,,9803141001,,,,District 1,1998/08/04 00:00:00+00,,,1411765.583,596232.0576,Mecklenburg,35.369615,-80.974489
275,CARM,Carmel Road Park,2365 CARMEL RD,2365, ,CARMEL,RD, ,CHARLOTTE,NC,28226,Neighborhood,General,Developed,South,,,,9803141003,,,District 6,District 5,1998/07/28 00:00:00+00,,,1459880.021,508712.683,Mecklenburg,35.133595,-80.807379
57,WCPK,West Charlotte Park,2401 KENDALL DR,2401, ,KENDALL,DR, ,CHARLOTTE,NC,28216,Neighborhood,General,Developed,Central,,,,9803141002,,,District 2,District 2,1998/07/28 00:00:00+00,,,1445799.331,557465.429,Mecklenburg,35.268339,-80.857355
112,WCLT,West Charlotte Recreation Center,2401 KENDALL DR,2401, ,KENDALL,DR, ,CHARLOTTE,NC,28216,Recreation Center,RecCenter,Developed,Central,,,,9803141002,,,District 2,District 2,1998/07/28 00:00:00+00,,,1445689.569,557814.6654,Mecklenburg,35.268339,-80.857355
198,AMJP,Amay James Park,2415 LESTER ST,2414, ,LESTER,ST, ,CHARLOTTE,NC,28208,Community,General,Undeveloped,Central,,,,9803141002,,,District 3,District 2,2007/05/01 00:00:00+00,,,1432091.481,534479.2239,Mecklenburg,35.203181,-80.90185
204,AMRC,Amay James Recreation Center & Annex,2425 LESTER ST,2425,,LESTER,ST,,CHARLOTTE,NC,28208,Recreation Center,RecCenter,Undeveloped,Central,,,,9803141002,,,District 3,District 2,,,,1431958.001,534153.0001,Mecklenburg,35.202741,-80.901689
233,MATH,Mecklenburg County Sports Complex,2425 SPORTS PY,0, ,NO ADDRESS, , ,MATTHEWS,NC,28105,Regional,General,Developed,South,,,,9803147539,,,,District 6,1998/10/06 00:00:00+00,,,1490721.298,498490.2704,Mecklenburg,35.111666,-80.699447
211,REVP,Revolution Park,2433 BARRINGER DR,2433, ,BARRINGER,DR, ,CHARLOTTE,NC,28208,Community,General,Developed,Central,,,,9803141002,,,District 3,District 2,1998/07/28 00:00:00+00,,,1439591.377,538625.5314,Mecklenburg,35.214812,-80.87515
230,FREE,Freedom Park,2435 CUMBERLAND AV,2435, ,CUMBERLAND,AV, ,CHARLOTTE,NC,28203,Regional,General,Developed,Central,,,,9803141002,,,District 1,District 5,2007/10/24 00:00:00+00,,,1448885.715,529821.9295,Mecklenburg,35.192768,-80.843871
138,DOWD,Dowd Park,2521 GREENLAND AV,2521, ,GREENLAND,AV, ,CHARLOTTE,NC,28208,Neighborhood,General,Under Construction,Central,,,,9803141002,,,District 3,District 2,1998/07/28 00:00:00+00,,,1437751.24,542495.8279,Mecklenburg,35.225836,-80.882187
15,MLDC,Mallard Creek Recreation Center,2530 JOHNSTON OEHLER RD,2530, ,JOHNSTON OEHLER,RD, ,CHARLOTTE,NC,28269,Recreation Center,RecCenter,Developed,North,,,,9803141121,,,District 4,District 1,1998/08/12 00:00:00+00,,,1475333.699,589500.0517,Mecklenburg,35.357032,-80.759755
306,RICE,Rice Park,2540 RICE RD,2540,,RICE,RD,,MATTHEWS,NC,28105,Town Park,General,Developed,South,,,,7043217275,,,,District 6,,,,1489992.169,510218.8085,Matthews,35.139288,-80.70583
164,SHAM,Shamrock Park,2545 JEFF ST,2545, ,JEFF,ST, ,CHARLOTTE,NC,28205,Neighborhood,General,Developed,Central,,,,9803141002,,,District 1,District 4,1998/07/28 00:00:00+00,,,1467349.193,545361.9667,Mecklenburg,35.234801,-80.783561
281,HIDD,Hidden Valley Park,260 NORTHCHASE DR,0, , , ,NO,CHARLOTTE,NC,28213,Neighborhood,General,Undeveloped,North,,,,9803141002,,,District 4,District 3,2000/05/23 00:00:00+00,,,1469748.13,555552.3194,Mecklenburg,35.263993,-80.776132
77,KLBN,Kilborne Park,2600 KILBORNE DR,2600, ,KILBORNE,DR, ,CHARLOTTE,NC,28205,Community,General,Developed,South,,,,9803141003,,,District 1,District 4,1998/07/28 00:00:00+00,,,1471109.586,539906.1002,Mecklenburg,35.220462,-80.771513
199,MLKP,Martin Luther King Jr. Park,2600 RAVENCROFT DR,2600, ,RAVENCROFT,DR, ,CHARLOTTE,NC,28208,Community,General,Developed,Central,,,,9803141002,,,District 2,District 2,1998/07/28 00:00:00+00,,,1441263.526,549621.5234,Mecklenburg,35.244134,-80.870708
292,DBLP,Double Oaks Park,2603 DOUBLE OAKS RD,2603, ,DOUBLE OAKS,RD, ,CHARLOTTE,NC,28206,Neighborhood,General,Undeveloped,Central,,,,9803141002,,,District 2,District 2,2008/05/14 00:00:00+00,,,1451262.341,553450.41,Mecklenburg,35.256501,-80.840366
33,SWCG,Smallwood Community Garden,2625 ROSLYN AV,2625,,ROSLYN,AV,,CHARLOTTE,NC,28208,Community Garden,Garden,Developed,Central,,,,9803141000,,,District 2,District 2,2018/08/24 00:00:00+00,,,1442650.311,550766.8097,Mecklenburg,35.249133,-80.866769
257,FALK,Faulkner Square Park,266 CONROY AV,266,,CONROY,AV,,DAVIDSON,NC,28036,Town Park,General,Developed,North,,,,7048923349,,,,District 1,,,,1454541.518,640409.6493,Davidson,35.495781,-80.832575
130,REVG,Charles L. Sifford Golf Course,2661 BARRINGER DR,2661, ,BARRINGER,DR, ,CHARLOTTE,NC,28208,Golf Course,Golf,Developed,Central,,,,9803141002,,,District 3,District 2,1998/07/28 00:00:00+00,,,1438529.898,537556.8295,Mecklenburg,35.212258,-80.879948
132,PRNP,Providence Nature Preserve,2710 PEVERELL LN,0, , , ,NO,CHARLOTTE,NC,28270,Nature Preserve,General,Undeveloped,South,,,,9803141003,,,District 7,District 6,2000/06/27 00:00:00+00,,,1474635.567,493859.5072,Mecklenburg,35.094791,-80.75794
206,WING,Wingate Park,2721 MAYFAIR AV,2731, ,MAYFAIR,AV, ,CHARLOTTE,NC,28208,Neighborhood,General,Developed,Central,,,,9803141002,,,District 3,District 2,1998/11/24 00:00:00+00,,,1430094.125,538449.6993,Mecklenburg,35.214682,-80.908002
118,EAST,Eastover Park,2730 RANDOLPH RD,2730, ,RANDOLPH,RD, ,CHARLOTTE,NC,28207,Neighborhood,General,Developed,Central,,,,9803141002,,,District 1,District 5,1998/07/28 00:00:00+00,,,1458408.111,532565.717,Mecklenburg,35.197346,-80.814623
16,WMJP,West Mecklenburg Park,2765 WESTERWOOD VILLAGE DR.,0, , , ,NO,CHARLOTTE,NC,28214,Neighborhood,General,Undeveloped,North,,,,9803141001,,,District 3,District 2,2008/07/28 00:00:00+00,,,1416395.272,551607.9467,Mecklenburg,35.24945,-80.954228
82,DRUD,Druid Hills Park,2801 POINSETT ST,2801, ,POINSETT,ST, ,CHARLOTTE,NC,28206,Neighborhood,General,Developed,Central,,,,9803141002,,,District 1,District 3,1998/10/07 00:00:00+00,,,1453292.949,554069.1403,Mecklenburg,35.258728,-80.831102
155,SHFP,Shuffletown Prairie Nature Preserve,2804 HART RD,0, ,NO ADDRESS, , ,CHARLOTTE,NC,28214,Nature Preserve,General,Developed,North,,,,9803141001,,,District 2,District 1,2002/05/13 00:00:00+00,,,1415261.331,580173.5785,Mecklenburg,35.327527,-80.960949
237,RENP,Reedy Creek Nature Preserve,2900 ROCKY RIVER RD,2900, ,ROCKY RIVER,RD, ,CHARLOTTE,NC,28215,Nature Preserve,General,Developed,North,,,,9803141001,,,District 4,District 3,1998/07/28 00:00:00+00,,,1487659.751,560034.7351,Mecklenburg,35.27548,-80.716941
309,REDY,Reedy Creek Park,2900 ROCKY RIVER RD,2900, ,ROCKY RIVER,RD, ,CHARLOTTE,NC,28215,Regional,General,Developed,North,,,,9803141001,,,District 4,District 3,2008/05/14 00:00:00+00,,,1487582.496,559996.4957,Mecklenburg,35.27548,-80.716941
221,CCHG,Country Club Heights Community Garden,2909 DUNLAVIN WY,2909,,DUNLAVIN,WY,,CHARLOTTE,NC,28205,Community Garden,Garden,Developed,Central,,,,9803141000,,,District 1,District 5,2018/08/24 00:00:00+00,,,1468194,543629.9999,Mecklenburg,35.230623,-80.780974
263,ENDC,Bette Rae Thomas Recreation Center,2921 TUCKASEEGEE RD,1220, ,CLAY,AV, ,CHARLOTTE,NC,28208,Recreation Center,RecCenter,Developed,Central,,,,9803141111,,,District 3,District 2,1998/07/28 00:00:00+00,,,1439430.591,548073.46,Mecklenburg,35.241546,-80.877733
196,RCNC,Reedy Creek Nature Center,2986 ROCKY RIVER RD,2986, ,ROCKY RIVER,RD, ,CHARLOTTE,NC,28215,Nature Center,General,Developed,North,,,,9803141001,,,District 4,District 3,2016/07/06 00:00:00+00,,,1486782.38,554634.2779,Mecklenburg,35.261773,-80.719383
11,JBCP,James Boyce Park,300 BOYCE RD,300, ,BOYCE,RD, ,CHARLOTTE,NC,28211,Community,General,Developed,South,,,,9803141003,,,District 6,District 5,1999/02/11 00:00:00+00,,,1471143.229,513298.1812,Mecklenburg,35.144505,-80.765991
100,INDP,Independence Park,300 HAWTHORNE LN,300, ,HAWTHORNE,LN,NO,CHARLOTTE,NC,28204,Neighborhood,General,Developed,Central,,,,9803141002,,,District 1,District 4,1998/07/28 00:00:00+00,,,1455728.206,538438.3214,Mecklenburg,35.213921,-80.823758
279,WEPK,Romare Bearden Park,300 S CHURCH ST,0, , , , ,CHARLOTTE,NC,28202,Neighborhood,General,Developed,Central,,,,9803141002,,,District 2,District 4,2009/04/24 00:00:00+00,,,1448476.753,542416.8192,Mecklenburg,35.226974,-80.847325
296,MOCG,Merry Oaks Community Garden,3000 HARBINGER CT,3000,,HARBINGER,CT,,CHARLOTTE,NC,28205,Community Garden,Garden,Developed,Central,,,,9803141002,,,District 3,District 2,2017/01/12 00:00:00+00,,,1464702.253,540960.0927,Mecklenburg,35.223147,-80.792619
265,MLCP,Mallard Creek Park,3001 JOHNSTON OEHLER RD,3001, ,JOHNSTON OEHLER,RD, ,CHARLOTTE,NC,28269,Regional,General,Developed,North,,,,9803141001,,,District 4,District 1,1998/07/28 00:00:00+00,,,1475023.32,591399.4427,Mecklenburg,35.360603,-80.763781
54,FOUR,Fourth Ward Park,301 N POPLAR ST,301,N,POPLAR,ST, ,CHARLOTTE,NC,28202,Neighborhood,General,Developed,Central,,,,9803141002,,,District 2,District 4,2007/12/12 00:00:00+00,,,1449875.708,544321.5989,Mecklenburg,35.230762,-80.842755
1,CLAG,Clanton Park Community Garden,3010 BARRINGER DR,3010,,BARRINGER,DR,,CHARLOTTE,NC,28217,Community Garden,Garden,Developed,Central,,,,9803141002,,,District 3,District 2,2019/03/25 16:29:41+00,,,1437598.029,535681.4151,Mecklenburg,35.206989,-80.882984
238,WINT,Winterfield Park,3010 WINTERFIELD PL,0, , , ,NO,CHARLOTTE,NC,28205,Neighborhood,General,Developed,South,,,,9803141003,,,District 5,District 4,2008/04/21 00:00:00+00,,,1472619.601,535594.4866,Mecklenburg,35.209405,-80.76621
170,CLEM,Davis Flohr Park,3020 CLEMSON AV,3020, ,CLEMSON,AV, ,CHARLOTTE,NC,28205,Neighborhood,General,Developed,Central,,,,9803141002,,,District 1,District 4,1998/07/28 00:00:00+00,,,1461636.744,547720.8184,Mecklenburg,35.241698,-80.802863
120,MATM,Matthews-Mint Hill Park,3024 MATTHEWS-MINT HILL RD,0, , , , ,MATTHEWS,NC,28105,Regional,General,Undeveloped,South,,,,9803141003,,,,District 6,2007/02/28 00:00:00+00,,,1496506.508,507596.2915,Mecklenburg,35.132749,-80.683217
115,FRST,First Ward Park,309 E 7TH ST,309,E,7TH,ST, ,CHARLOTTE,NC,28202,Neighborhood,General,Developed,Central,,,,9803141002,,,District 1,District 4,2015/12/08 00:00:00+00,,,1451815.426,542871.3429,Mecklenburg,35.227502,-80.837142
17,MEMS,American Legion Memorial Stadium,310 N KINGS DR,310,N,KINGS,DR, ,CHARLOTTE,NC,28204,Event Venue,Venue,Under Construction,Central,,,,7043362884,,,District 1,District 4,1998/07/28 00:00:00+00,,,1453905.874,539746.4418,Mecklenburg,35.219122,-80.829247
176,GRDY,Grady Cole Center,310 N KINGS DR,310,N,KINGS,DR, ,CHARLOTTE,NC,28204,Event Venue,Venue,Developed,Central,,,,7043362884,,,District 1,District 4,1998/07/28 00:00:00+00,,,1453709.899,539716.0994,Mecklenburg,35.219122,-80.829247
133,FTRP,Fountain Rock Park,311 S TRADE ST,311,S,TRADE,ST,,MATTHEWS,NC,28105,Town Park,General,Developed,South,,,,7043217275,,,,District 6,,,,1485305.583,499137.3433,Matthews,35.109321,-80.721406
184,GRHT,Grier Heights Park,3120 LEROY ST,3110, ,LEROY,ST, ,CHARLOTTE,NC,28205,Neighborhood,General,Developed,Central,,,,9803141002,,,District 1,District 4,2007/07/16 00:00:00+00,,,1459885.996,531103.8159,Mecklenburg,35.195684,-80.808175
150,CLAP,Dorothy D. Waddy Pavilion,3132 MANCHESTER DR,3132,,MANCHESTER,DR,,CHARLOTTE,NC,28217,Pavilion,Venue,Developed,Central,,,,9803141002,,,District 3,District 2,2019/02/25 16:36:18+00,,,1437385.001,535127.0001,Mecklenburg,35.205701,-80.883587
50,CGTL,Caldwell Green Tot Lot,320 CALDWELL LN,320,,CALDWELL,LN,,DAVIDSON,NC,28036,Town Park,General,Developed,North,,,,7048923349,,,,District 1,,,,1454775.465,639323.6944,Davidson,35.49273,-80.831891
106,KPPK,KP Park,320 E MATTHEWS ST,320,E,MATTHEWS,ST,,MATTHEWS,NC,28105,Town Park,General,Developed,South,,,,7043217275,,,,District 6,,,,1486277.079,501986.1541,Matthews,35.117105,-80.718055
39,MTHP,Methodist Home Park,3200 SHAMROCK DR,3200, ,SHAMROCK,DR, ,CHARLOTTE,NC,28205,Neighborhood,General,Developed,South,,,,9803141003,,,District 1,District 4,1998/07/28 00:00:00+00,,,1470191.876,544757.6256,Mecklenburg,35.235156,-80.773025
291,MTHC,Methodist Home Recreation Center,3200 SHAMROCK DR,3200, ,SHAMROCK,DR, ,CHARLOTTE,NC,28205,Recreation Center,RecCenter,Developed,South,,,,9803141123,,,District 1,District 4,1998/07/28 00:00:00+00,,,1470575.456,545221.9688,Mecklenburg,35.235156,-80.773025
268,REID,Reid Park,3207 AMAY JAMES AV,0, ,NO ADDRESS, , ,CHARLOTTE,NC,28208,Neighborhood,General,Developed,Central,,,,9803141002,,,District 3,District 2,1998/10/12 00:00:00+00,,,1432367.44,534637.1879,Mecklenburg,35.204252,-80.900194
73,LKWD,Lakewood Park,3207 KALYNNE ST,0, , , , ,CHARLOTTE,NC,28208,Neighborhood,General,Developed,Central,,,,9803141002,,,District 2,District 2,,,,1439226.176,552307.85,Mecklenburg,35.251681,-80.879726
121,SOLO,Solomans Park,3299 VENICE ST,3299, ,VENICE,ST, ,CHARLOTTE,NC,28216,Neighborhood,General,Developed,Central,,,,9803141002,,,District 2,District 2,1998/07/28 00:00:00+00,,,1441622.376,555139.0659,Mecklenburg,35.260767,-80.870973
208,JACK,Jack Hughes Park,330 JACK HUGHES LN,330,,JACK HUGHES,LN,,PINEVILLE,NC,28134,Town Park,General,Developed,South,,,,7048892400,,,,District 6,,,,1433272.076,491510.1477,Pineville,35.085356,-80.89631
147,AFRM,Abersham Park,3314 GREY RD,3314,,GREY,RD,,DAVIDSON,NC,28036,Town Park,General,Developed,North,,,,7048923349,,,,District 1,2008/04/17 00:00:00+00,,,1463087.377,643919.2072,Davidson,35.505938,-80.803932
116,BCKP,Back Creek Park,3343 BACK CREEK CHURCH RD,0, ,NO ADDRESS, , ,CHARLOTTE,NC,28213,Regional,General,Undeveloped,North,,,,9803141001,,,District 4,District 3,2002/03/18 00:00:00+00,,,1492047.596,564895.0866,Mecklenburg,35.290764,-80.701762
110,TPDP,The Preserve Dog Park,336 O HENRY AV,336,,O HENRY,AV,,DAVIDSON,NC,28036,Town Park,General,Developed,North,,,,7048923349,,,,District 1,,,,1455310.084,640786.4289,Davidson,35.496969,-80.830095
254,NCPK,North Charlotte Park,3400 SPENCER ST,3400, ,SPENCER,ST, ,CHARLOTTE,NC,28205,Neighborhood,General,Developed,Central,,,,9803141002,,,District 1,District 4,1998/07/28 00:00:00+00,,,1463246.293,549329.7604,Mecklenburg,35.24548,-80.797644
86,HAWC,Hawthorne Recreation Center,345 HAWTHORNE LN,345, ,HAWTHORNE,LN, ,CHARLOTTE,NC,28204,Recreation Center,RecCenter,Developed,Central,,,,9803141002,,,District 1,District 4,1998/07/28 00:00:00+00,,,1455564.45,538311.8351,Mecklenburg,35.215495,-80.823058
135,FSPK,Firestone Park,3501 FIRESTONE DR,3501, ,FIRESTONE,DR, ,CHARLOTTE,NC,28216,Community,General,Developed,North,,,,9803141001,,,District 2,District 2,1998/07/28 00:00:00+00,,,1441270.357,564949.7946,Mecklenburg,35.287758,-80.87338
256,DRTA,Derita Park,3509 FREW RD,3509, ,FREW,RD, ,CHARLOTTE,NC,28206,Community,General,Developed,North,,,,9803141001,,,District 1,District 3,1998/07/28 00:00:00+00,,,1460946.331,554062.2899,Mecklenburg,35.25977,-80.806533
142,OAKT,Oakhurst Park,3533 CRAIG AV,3533, ,CRAIG,AV, ,CHARLOTTE,NC,28211,Neighborhood,General,Developed,South,,,,9803141003,,,District 5,District 5,1998/07/28 00:00:00+00,,,1465359.696,529298.5952,Mecklenburg,35.192106,-80.789496
316,MRND,Possum Walk Nature Preserve,3540 MIRANDA RD,0, , , , ,CHARLOTTE,NC,28216,Nature Preserve,General,Undeveloped,North,,,,9803141001,,,,District 2,2014/08/06 00:00:00+00,,,1438355.381,581697.0666,Mecklenburg,35.333172,-80.886337
270,TRGL,Tradition Golf Course,3800 PROSPERITY CHURCH RD,3800, ,PROSPERITY CHURCH,RD, ,CHARLOTTE,NC,28269,Golf Course,Golf,Developed,North,,,,9803141001,,,District 4,District 1,1998/07/28 00:00:00+00,,,1470357.596,587398.5279,Mecklenburg,35.35082,-80.774356
202,OLDP,Olde Providence Park,3800 REA RD,3800, ,REA,RD, ,CHARLOTTE,NC,28226,Community,General,Developed,South,,,,9803141003,,,District 7,District 5,1998/07/28 00:00:00+00,,,1462464.343,499870.0594,Mecklenburg,35.110665,-80.798532
187,HOSK,Eva B. Barber Park,3801 GOSSETT AV,3801, ,GOSSETT,AV, ,CHARLOTTE,NC,28208,Neighborhood,General,Developed,North,,,,9803141001,,,District 2,District 2,1998/07/28 00:00:00+00,,,1437463.883,554782.8835,Mecklenburg,35.260521,-80.884195
223,WEST,Westerly Hills Park,3970 BRISTOL DR,3970, ,BRISTOL,DR, ,CHARLOTTE,NC,28208,Neighborhood,General,Developed,Central,,,,9803141002,,,District 3,District 2,1998/07/28 00:00:00+00,,,1431354.5,544156.9165,Mecklenburg,35.230217,-80.904893
213,MCCG,McAlpine Creek Community Garden,399 HOLLY LN,399,,HOLLY,LN,,CHARLOTTE,NC,28212,Community Garden,Garden,Developed,South,,,,9803141000,,,District 6,District 5,2018/08/24 00:00:00+00,,,1471179.235,509524.479,Mecklenburg,35.136017,-80.770686
45,SCES,Steele Creek Park,4000 GALLANT LN,4100, ,GALLANT,LN, ,CHARLOTTE,NC,28273,Neighborhood,General,Developed,South,,,,9803141003,,,District 3,District 2,1998/07/28 00:00:00+00,,,1415167.528,517582.4125,Mecklenburg,35.1534,-80.955961
10,OAKH,Oak Hills Park,4120 OAKDALE RD,4120,,OAKDALE,RD,,CHARLOTTE,NC,28216,Regional,General,Undeveloped,North,,,,9803141001,,,,District 1,2018/05/01 00:00:00+00,,,1430613.648,579807.8983,Mecklenburg,35.328064,-80.909036
152,HUTP,The Hut,413 JOHNSTON DR,413,,JOHNSTON,DR,,PINEVILLE,NC,28134,Town Park,General,Developed,South,,,,7048892400,,,,District 6,,,,1434315.263,490207.8774,Pineville,35.082134,-80.891021
137,EZEL,Ezell Farm Park,4155 MINTWOOD DR,4155, ,MINTWOOD,DR, ,MINT HILL,NC,28227,Community,General,Developed,South,,,,9803141003,,,,District 6,2003/07/11 00:00:00+00,,,1500639.634,516410.2285,Mecklenburg,35.156307,-80.671706
161,NINT,Ninth Street Park,417 W 9TH ST,417,W,9TH,ST, ,CHARLOTTE,NC,28202,Neighborhood,General,Developed,Central,,,,9803141002,,,District 2,District 4,1998/07/28 00:00:00+00,,,1450224.243,545218.4455,Mecklenburg,35.234055,-80.841426
25,RWPP,Roosevelt Wilson Park,420 GRIFFITH ST,420,,GRIFFITH,ST,,DAVIDSON,NC,28036,Town Park,General,Developed,North,,,,7048923349,,,,District 1,,,,1448301.34,643068.5452,Davidson,35.502436,-80.853409
14,MCKE,McKee Road Park,4201 MCKEE RD,4201, ,MCKEE,RD, ,CHARLOTTE,NC,28270,Community,General,Developed,South,,,,9803141003,,,District 7,District 6,1998/10/07 00:00:00+00,,,1474330.293,484449.0184,Mecklenburg,35.067439,-80.756582
189,FRPP,Forest Park Playground,421 N FAULKNER WY,421,N,FAULKNER,WY,,DAVIDSON,NC,28036,Town Park,General,Developed,North,,,,7048923349,,,,District 1,,,,1455570.025,640015.7189,Davidson,35.494866,-80.829235
173,EASP,Eastway Park,423 EASTWAY DR,423, ,EASTWAY,DR, ,CHARLOTTE,NC,28215,Community,General,Developed,North,,,,9803141001,,,District 1,District 3,2003/07/11 00:00:00+00,,,1468679.964,551894.8877,Mecklenburg,35.255751,-80.773758
253,EASR,Eastway Regional Recreation Center,423 EASTWAY DR,423, ,EASTWAY,DR, ,CHARLOTTE,NC,28215,Recreation Center,RecCenter,Developed,North,,,,9803141001,,,District 1,District 3,,,,1469889.38,552535.0569,Mecklenburg,35.255751,-80.773758
251,FULL,Fullwood Community Garden,427 COVENANT CHURCH LN,427,,COVENANT CHURCH,LN,,MATTHEWS,NC,28105,Town Park,General,Developed,South,,,,7047081288,,,,District 6,,,,1481763.333,503242.6049,Matthews,35.120329,-80.73318
194,COLB,Colonel Francis J. Beatty Park,4330 WEDDINGTON RD,4330, ,WEDDINGTON,RD, ,CHARLOTTE,NC,28105,Regional,General,Developed,South,,,,9803141003,,,District 7,District 6,1998/07/28 00:00:00+00,,,1482781.59,483948.3282,Mecklenburg,35.06745,-80.730087
43,RURL,Rural Hill Nature Preserve,4431 NECK RD,4431, ,NECK,RD, ,HUNTERSVILLE,NC,28078,Nature Preserve,General,Developed,North,,,,9803141001,,,,District 1,1998/07/28 00:00:00+00,,,1420177.126,600330.8759,Mecklenburg,35.385779,-80.945841
2,COLL,Collins Park,4525 COLLINGWOOD DR,4525, ,COLLINGWOOD,DR, ,CHARLOTTE,NC,28209,Neighborhood,General,Developed,Central,,,,9803141002,,,District 1,District 5,1998/07/28 00:00:00+00,,,1440896.75,526061.0002,Mecklenburg,35.181234,-80.871587
56,WRDP,William R. Davie Park,4635 PINEVILLE-MATTHEWS RD,4635, ,PINEVILLE-MATTHEWS,RD, ,CHARLOTTE,NC,28226,Regional,General,Developed,South,,,,9803141003,,,District 7,District 6,2008/05/14 00:00:00+00,,,1460098.028,492722.5787,Mecklenburg,35.085811,-80.804787
160,ALHP,Allen Hills Park,4701 CHEVIOT RD,4701, ,CHEVIOT,RD, ,CHARLOTTE,NC,28269,Neighborhood,General,Developed,North,,,,9803141001,,,District 4,District 3,2007/10/16 00:00:00+00,,,1457258.371,563623.9445,Mecklenburg,35.286045,-80.818622
65,TUCP,Tuckaseegee Park,4820 TUCKASEEGEE RD,4820, ,TUCKASEEGEE,RD, ,CHARLOTTE,NC,28208,Neighborhood,General,Developed,North,,,,9803141001,,,District 3,District 2,1998/07/28 00:00:00+00,,,1430415.472,550805.5421,Mecklenburg,35.24865,-80.907287
92,TUCC,Tuckaseegee Recreation Center,4820 TUCKASEEGEE RD,4820, ,TUCKASEEGEE,RD, ,CHARLOTTE,NC,28208,Recreation Center,RecCenter,Developed,North,,,,9803141001,,,District 3,District 2,1998/07/28 00:00:00+00,,,1430590.502,550832.1888,Mecklenburg,35.24865,-80.907287
123,STPH,Buckeye Cove Nature Preserve,4918 CASHION RD,0, , , , ,HUNTERSVILLE,NC,28078,Nature Preserve,General,Developed,North,,,,9803141001,,,,District 1,1998/07/28 00:00:00+00,,,1420020.678,610417.1214,Mecklenburg,35.406003,-80.94801
299,BIDD,Biddleville Park,500 ANDRILL TR,500, ,ANDRILL,TR, ,CHARLOTTE,NC,28216,Neighborhood,General,Developed,Central,,,,9803141002,,,District 2,District 2,2007/07/09 00:00:00+00,,,1447589.614,548667.2521,Mecklenburg,35.242548,-80.850673
197,MLKR,Martin Luther King Jr. Middle School Site,500 BILMARK AV,0, , , , ,CHARLOTTE,NC,28213,Recreation Center,RecCenter,Developed,North,,,,9803141124,,,District 4,District 3,,,,1468942.507,555464.0724,Mecklenburg,35.263288,-80.778569
166,CATW,US National Whitewater Center,5000 WHITEWATER CENTER PY,5000, ,WHITEWATER CENTER,PY, ,CHARLOTTE,NC,28214,Regional,General,Developed,North,,,,7043913900,,,,District 2,2008/04/21 00:00:00+00,,,1402482.619,559750.5007,USNWC,35.272432,-81.005261
303,WPRC,Wallace Pruitt Recreation Center,501 S BRUNS AV,0, , , , ,CHARLOTTE,NC,28208,Recreation Center,RecCenter,Developed,Central,,,,9803141114,,,District 2,District 2,,,,1443170.699,547226.3734,Mecklenburg,35.238919,-80.864749
84,MORG,Cherry Park,501 S TORRENCE ST,501,S,TORRENCE,ST,,CHARLOTTE,NC,28204,Neighborhood,General,Developed,Central,,,,9803141002,,,District 1,District 4,1998/07/28 00:00:00+00,,,1452582.271,536491.9297,Mecklenburg,35.209813,-80.832802
97,RIBW,Ribbonwalk Nature Preserve,5017 HOYT HINSON RD,5017, ,HOYT HINSON,RD, ,CHARLOTTE,NC,28269,Nature Preserve,General,Developed,North,,,,9803141000,,,District 2,District 3,2005/07/11 00:00:00+00,,,1457448.575,566045.9846,Mecklenburg,35.295505,-80.821699
227,ABRC,Albemarle Recreation Center,5027 IDLEWILD RD NORTH,5027,N,IDLEWILD,RD, ,CHARLOTTE,NC,28227,Recreation Center,RecCenter,Developed,South,,,,9803141101,,,District 5,District 4,2002/03/18 00:00:00+00,,,1484748.746,530702.9793,Mecklenburg,35.196063,-80.724896
225,DELL,Dellwood Center,508 DELLWOOD DR,508,,DELLWOOD,DR,,HUNTERSVILLE,NC,28078,Town Park,General,Developed,North,,,,7047662220,,,,District 1,,,,1453407.495,607319.1697,Huntersville,35.404437,-80.834516
186,LATC,Latta Recreation Center,510 E PARK AV,510, ,EAST PARK,AV, ,CHARLOTTE,NC,28203,Recreation Center,RecCenter,Developed,Central,,,,9803141002,,,District 1,District 4,1998/07/28 00:00:00+00,,,1446945.096,536587.8853,Mecklenburg,35.21028,-80.851919
269,MIDT,Midtown Park,510 S KINGS DR,510,S,KINGS,DR, ,CHARLOTTE,NC,28204,Neighborhood,General,Developed,Central,,,,9803141002,,,District 1,District 4,2004/08/03 00:00:00+00,,,1451630.387,536701.9948,Mecklenburg,35.210561,-80.836164
13,AUTN,Auten Nature Preserve,5201 NECK RD,0, ,NO ADDRESS, , ,HUNTERSVILLE,NC,28078,Nature Preserve,General,Undeveloped,North,,,,9803141001,,,,District 1,2002/03/18 00:00:00+00,,,1423739.761,597954.1628,Mecklenburg,35.37906,-80.936116
8,LATT,Latta Place Historic Site,5225 SAMPLE RD B,5225, ,SAMPLE,RD, ,HUNTERSVILLE,NC,28216,Historic,Historic,Developed,North,,,,9803141001,,,,District 1,1998/07/28 00:00:00+00,,,1424655.47,589006.1421,Mecklenburg,35.35439,-80.930877
328,LATN,Latta Nature Preserve,5226 SAMPLE RD,5226, ,SAMPLE,RD, ,HUNTERSVILLE,NC,28216,Nature Preserve,General,Developed,North,,,,9803141129,,,,District 1,1998/07/28 00:00:00+00,,,1432158.248,591131.9673,Mecklenburg,35.351762,-80.930217
140,GRWP,Greenway Park,526 GREENWAY ST,526,,GREENWAY,ST,,HUNTERSVILLE,NC,28078,Town Park,General,Developed,North,,,,7047662220,,,,District 1,,,,1449771.011,607678.6263,Huntersville,35.40582,-80.846621
249,BRWD,Briarwood Park,5349 WATERWOOD ST,5349, ,WATERWOOD,ST, ,CHARLOTTE,NC,28215,Community,General,Developed,North,,,,9803141001,,,District 1,District 3,2002/03/18 00:00:00+00,,,1472738.399,552337.4335,Mecklenburg,35.254947,-80.767278
168,SEVP,Seversville Park,540 S BRUNS AV,540,S,BRUNS,AV, ,CHARLOTTE,NC,28217,Neighborhood,General,Developed,Central,,,,9803141002,,,District 2,District 2,2002/04/03 00:00:00+00,,,1442707.194,547178.6208,Mecklenburg,35.238752,-80.866685
318,ARCH,Archdale Park,5400 CHERRYCREST LN,5400, ,CHERRYCREST,LN, ,CHARLOTTE,NC,28217,Neighborhood,General,Developed,South,,,,9803141003,,,District 3,District 2,2008/09/02 00:00:00+00,,,1436172.61,515649.9863,Mecklenburg,35.152164,-80.884639
288,JUPK,Julian Underwood Park,5400 GALWAY DR,5400, ,GALWAY,DR, ,CHARLOTTE,NC,28215,Neighborhood,General,Developed,South,,,,9803141003,,,District 1,District 3,1998/07/28 00:00:00+00,,,1475166.988,547499.4936,Mecklenburg,35.241516,-80.757721
261,VIEW,Viewmont Park,5400 VIEWMONT DR,5400, ,VIEWMONT,DR, ,CHARLOTTE,NC,28215,Neighborhood,General,Developed,North,,,,9803141001,,,District 1,District 3,1998/07/28 00:00:00+00,,,1477494.418,554226.9274,Mecklenburg,35.261069,-80.750876
129,DAVS,Clarks Creek Nature Preserve,5434 HUCKS RD,0, ,NO ADDRESS, , ,CHARLOTTE,NC,28269,Nature Preserve,General,Developed,North,,,,9803141001,,,District 4,District 1,2003/07/11 00:00:00+00,,,1460036.146,587879.0109,Mecklenburg,35.354048,-80.807893
81,DAVP,Clarks Creek Park,5435 HUCKS RD,0, , , , ,CHARLOTTE,NC,28269,Community,General,Developed,North,,,,9803141001,,,District 4,District 1,2003/07/11 00:00:00+00,,,1460042.412,587800.5253,Mecklenburg,35.351509,-80.811197
273,TEDD,Teddington Park,5517 FREEDOM DR,0, ,NO ADDRESS, , ,CHARLOTTE,NC,28214,Neighborhood,General,Undeveloped,North,,,,9803141001,,,District 3,District 2,2003/07/11 00:00:00+00,,,1424012.932,557594.0288,Mecklenburg,35.265831,-80.930505
96,CTPP,Country Place Park,557 S TRADE ST,557,S,TRADE,ST,,MATTHEWS,NC,28105,Town Park,General,Developed,South,,,,7043217275,,,,District 6,,,,1483706.865,500003.8014,Matthews,35.111551,-80.726423
145,GREN,Greene Street Park,5612 GREENE ST,5612, ,GREENE,ST, ,CHARLOTTE,NC,28269,Neighborhood,General,Undeveloped,North,,,,9803141001,,,District 2,District 3,2017/04/17 00:00:00+00,,,1460390.855,572092.5675,Mecklenburg,35.308326,-80.808771
58,EPDO,Monroe Road Park,5715 MONROE RD,5715, ,MONROE,RD, ,CHARLOTTE,NC,28212,Neighborhood,General,Developed,South,,,,9803141003,,,District 5,District 4,2002/06/12 00:00:00+00,,,1472227.869,527689.4073,Mecklenburg,35.187256,-80.76666
53,MCIN,McIntyre Historic Site,5801 BEATTIES FORD RD,5801, ,BEATTIES FORD,RD, ,CHARLOTTE,NC,28216,Historic,Historic,Developed,North,,,,9803141001,,,District 2,District 2,1998/07/28 00:00:00+00,,,1444039.596,573817.5957,Mecklenburg,35.312383,-80.864177
131,ADMN,Administrative Office - Main,5841 BROOKSHIRE BV,5841, ,BROOKSHIRE,BV, ,CHARLOTTE,NC,28216,Operational,Misc,Operational,North,,,,9803141001,,,District 2,District 2,2007/07/09 00:00:00+00,,,1432352.085,562959.6106,Mecklenburg,35.282206,-80.90195
201,STPH,Buckeye Cove Nature Preserve,5901 STEPHENS RD,0, ,NO ADDRESS, ,NO,HUNTERSVILLE,NC,28078,Nature Preserve,General,Developed,North,,,,9803141001,,,,District 1,1998/07/28 00:00:00+00,,,1422651.546,606613.7284,Mecklenburg,35.173697,-80.979027
55,BERE,Berewick Recreation Center,5910 DIXIE RIVER RD,5910, ,DIXIE RIVER,RD, ,CHARLOTTE,NC,28208,Recreation Center,RecCenter,Developed,South,,,,9803141003,,,,District 2,2002/11/06 00:00:00+00,,,1408860.138,524108.9122,Mecklenburg,35.174279,-80.98036
162,UPST,Berewick Park,5920 DIXIE RIVER RD,0, ,NO ADDRESS, , ,CHARLOTTE,NC,28208,Regional,General,Developed,South,,,,9803141003,,,,District 2,1998/10/06 00:00:00+00,,,1408120.605,523981.0722,Mecklenburg,35.238051,-80.816519
311,CORP,Cordelia Park,600 E 24TH ST,600,E,24TH,ST, ,CHARLOTTE,NC,28205,Community,General,Developed,Central,,,,9803141002,,,District 1,District 3,1998/08/12 00:00:00+00,,,1457990.582,546282.8773,Mecklenburg,35.19886,-80.857538
143,SEDF,Sedgefield Park,600 ELMHURST RD,600, ,ELMHURST,RD, ,CHARLOTTE,NC,28209,Neighborhood,General,Developed,Central,,,,9803141002,,,District 1,District 4,1998/07/28 00:00:00+00,,,1444953.404,532281.446,Mecklenburg,35.350354,-80.918333
319,CRAP,Carolina Raptor Center,6000 SAMPLE RD,6000, ,SAMPLE,RD, ,HUNTERSVILLE,NC,28216,Raptor Center,Raptor,Developed,North,,,,9803141001,,,,District 1,1998/07/28 00:00:00+00,,,1427937.708,588095.0327,Mecklenburg,35.209622,-80.850739
307,LATP,Latta Park,601 E PARK AV,601, ,EAST PARK,AV, ,CHARLOTTE,NC,28203,Community,General,Developed,Central,,,,9803141002,,,District 1,District 4,1998/07/28 00:00:00+00,,,1447160.203,536339.0379,Mecklenburg,35.209622,-80.850739
27,BAUC,Baucom Park,601 SADIE DR,601,,SADIE,DR,,MATTHEWS,NC,28105,Town Park,General,Developed,South,,,,7043217275,,,,District 6,,,,1486318.649,499834.0088,Matthews,35.111247,-80.717628
315,NEVN,Nevin Park,6100 STATESVILLE RD,6100, ,STATESVILLE,RD, ,CHARLOTTE,NC,28269,Regional,General,Developed,North,,,,9803141001,,,District 2,District 3,2000/12/11 00:00:00+00,,,1451160.866,569885.1162,Mecklenburg,35.303599,-80.839078
31,SIXP,Sixteenth Street Park,620 E 16TH ST,620,E,16TH,ST, ,CHARLOTTE,NC,28206,Neighborhood,General,Developed,Central,,,,9803141002,,,District 1,District 3,1997/09/29 00:00:00+00,,,1455531.692,544477.2366,Mecklenburg,35.232057,-80.823459
235,PKTN,Park Road Tennis Center,6215 PARK RD,6215, ,PARK,RD, ,CHARLOTTE,NC,28210,Tennis Center,Sports,Developed,South,,,,9803141003,,,District 6,District 5,1998/07/28 00:00:00+00,,,1447106.945,513334.5081,Mecklenburg,35.146845,-80.848822
78,PKRD,Park Road Park,6220 PARK RD,6220, ,PARK,RD, ,CHARLOTTE,NC,28210,Community,General,Developed,South,,,,9803141003,,,District 6,District 5,1999/05/07 00:00:00+00,,,1447014.845,513334.3738,Mecklenburg,35.14633,-80.850138
259,MCEF,McEver Athletic Field,626 SOUTH ST,626,,SOUTH,ST,,DAVIDSON,NC,28036,Town Park,General,Developed,North,,,,7048923349,,,,District 1,,,,1449550.494,638675.8432,Davidson,35.489507,-80.849469
156,HORN,Hornets Nest Park,6301 BEATTIES FORD RD,6331, ,BEATTIES FORD,RD, ,CHARLOTTE,NC,28216,Regional,General,Developed,North,,,,9803141001,,,District 2,District 2,1998/07/28 00:00:00+00,,,1443656.172,576659.3389,Mecklenburg,35.319552,-80.868522
60,CALD,Caldwell Park,6301 CALDWELL PARK DR,0, , , ,NO,CHARLOTTE,NC,28213,Neighborhood,General,Undeveloped,North,,,,9803141001,,,,District 3,2016/09/01 00:00:00+00,,,1496887.174,572811.5644,Mecklenburg,35.310894,-80.687194
159,ROCK,Thereasea C. Elders Park,6325 ROCKWELL CHURCH RD,6325, ,ROCKWELL CHURCH,RD, ,CHARLOTTE,NC,28269,Neighborhood,General,Developed,North,,,,9803141001,,,District 2,District 3,1998/10/12 00:00:00+00,,,1463108.376,571111.2459,Mecklenburg,35.306233,-80.799995
195,DEVS,Devonshire Park,6330 BARRINGTON DR,6330, ,BARRINGTON,DR, ,CHARLOTTE,NC,28215,Neighborhood,General,Developed,North,,,,9803141001,,,District 1,District 3,1998/07/28 00:00:00+00,,,1478858.015,549509.8141,Mecklenburg,35.24728,-80.746054
220,LTNC,Quest at Latta Nature Preserve,6345 SAMPLE RD,6345, ,SAMPLE,RD, ,CHARLOTTE,NC,28078,Nature Center,General,Developed,North,,,,9803141129,,,,District 1,2016/07/06 00:00:00+00,,,1431481.004,590670.2947,Mecklenburg,35.35672,-80.907625
260,REDD,Reddman Road Park,6350 REDDMAN RD,6350, ,REDDMAN,RD, ,CHARLOTTE,NC,28212,Community,General,Undeveloped,South,,,,9803141003,,,District 5,District 4,2003/07/11 00:00:00+00,,,1477267.252,530855.0224,Mecklenburg,35.196899,-80.752353
247,UNTY,Unity Park,6401 KELSEY DR,6401, ,KELSEY,RD, ,CHARLOTTE,NC,28215,Neighborhood,General,Developed,North,,,,9803141001,,,District 5,District 3,1998/07/28 00:00:00+00,,,1476805.596,552276.8959,Mecklenburg,35.255279,-80.752969
169,YORK,Yorkmont Park,6417 VICKERS RD,6417, ,VICKERS,RD, ,CHARLOTTE,NC,28217,Neighborhood,General,Developed,South,,,,9803141003,,,District 3,District 2,1998/07/28 00:00:00+00,,,1431594.515,520191.6372,Mecklenburg,35.164084,-80.902119
317,STHS,Southside Park,645 REMOUNT RD,645, ,REMOUNT,RD, ,CHARLOTTE,NC,28203,Community,General,Developed,Central,,,,9803141002,,,District 3,District 2,1998/07/28 00:00:00+00,,,1440013.678,535946.9121,Mecklenburg,35.206957,-80.873015
34,BIGR,Big Rock Nature Preserve,6500 ELMSTONE DR,0, ,NO ADDRESS, , ,CHARLOTTE,NC,28277,Nature Preserve,General,Developed,South,,,,9803141003,,,District 7,District 6,2002/03/18 00:00:00+00,,,1453468.38,482058.1874,Mecklenburg,35.061703,-80.826986
71,CMCP,Campbell Creek Park,6601 BARCLIFF DR,6601, ,BARCLIFFE,DR, ,CHARLOTTE,NC,28212,Community,General,Developed,South,,,,9803141003,,,District 5,District 4,1998/07/28 00:00:00+00,,,1481781.309,537915.1491,Mecklenburg,35.21579,-80.735186
287,MARM,Marmac Road Park,6602 TUCKASEEGEE RD,0, , , ,NO,CHARLOTTE,NC,28266,Community,General,Undeveloped,North,,,,9803141001,,,District 3,District 2,2008/04/21 00:00:00+00,,,1425065.211,549557.6427,Mecklenburg,35.245434,-80.935603
76,CEDR,Cedarwood Park,6624 REDDMAN RD,6624, ,REDDMAN,RD, ,CHARLOTTE,NC,28212,Neighborhood,General,Developed,South,,,,9803141003,,,District 5,District 4,1998/07/28 00:00:00+00,,,1477174.592,529105.6791,Mecklenburg,35.191989,-80.751129
44,SPRG,Springfield Park,6700 DEANWOOD PL,6700, ,DEANWOOD,PL, ,CHARLOTTE,NC,28217,Neighborhood,General,Developed,South,,,,9803141003,,,District 3,District 2,1998/07/28 00:00:00+00,,,1431135.076,518528.0594,Mecklenburg,35.160032,-80.902895
239,HGRC,Hickory Grove Recreation Center,6709 PENCE RD,6709, ,PENCE,RD, ,CHARLOTTE,NC,28215,Recreation Center,RecCenter,Developed,South,,,,9803141003,,,District 5,District 4,2008/02/26 00:00:00+00,,,1487014.498,541732.7856,Mecklenburg,35.226405,-80.716963
313,PENC,Hickory Grove Park,6709 PENCE RD,6709, ,PENCE,RD, ,CHARLOTTE,NC,28227,Neighborhood,General,Developed,South,,,,9803141003,,,District 5,District 4,2003/07/11 00:00:00+00,,,1487149.657,541545.5582,Mecklenburg,35.226405,-80.716963
102,METO,Second Ward Gymnasium,710 E MARTIN LUTHER KING JR BV,710,E,MARTIN LUTHER KING JR,BV,,CHARLOTTE,NC,28202,Recreation Center,RecCenter,Developed,Central,,,,9803141002,,,District 1,District 4,2018/10/09 00:00:00+00,,,1450307.352,539411.6044,Mecklenburg,35.218073,-80.840814
101,PHGP,Parham Gateway Park,710 LAKE PARK DR,710,,LAKE PARK,DR,,DAVIDSON,NC,28036,Town Park,General,Developed,North,,,,7048923349,,,,District 1,,,,1445399.258,641446.6496,Davidson,35.498654,-80.863343
134,LIND,Delta Creek Park,7300 LINDA LAKE DR,0, , , , ,CHARLOTTE,NC,28215,Neighborhood,General,Developed,North,,,,9803141001,,,District 5,District 3,1998/12/15 00:00:00+00,,,1484133.106,548323.9679,Mecklenburg,35.244579,-80.727843
67,MSNW,Mason Wallace Park,7301 MONROE RD,7301, ,MONROE,RD, ,CHARLOTTE,NC,28212,Community,General,Developed,South,,,,9803141003,,,District 5,District 4,1998/07/28 00:00:00+00,,,1475386.783,520579.8188,Mecklenburg,35.169199,-80.755893
141,ALEX,Alexander Park,739 E 12TH ST,739,E,12TH,ST, ,CHARLOTTE,NC,28206,Neighborhood,General,Developed,Central,,,,9803141002,,,District 1,District 4,2002/03/18 00:00:00+00,,,1454368.71,542959.2309,Mecklenburg,35.227259,-80.827474
127,GRAY,Grayson Park,750 BEAL ST,750, ,BEAL,ST, ,CHARLOTTE,NC,28211,Neighborhood,General,Developed,South,,,,9803141003,,,District 1,District 5,1998/07/28 00:00:00+00,,,1463335.645,529069.4498,Mecklenburg,35.189839,-80.796346
330,NAOM,Naomi Drenan Recreation Center,750 BEAL ST,750, ,BEAL,ST, ,CHARLOTTE,NC,28211,Recreation Center,RecCenter,Developed,South,,,,9803141100,,,District 1,District 5,1998/07/28 00:00:00+00,,,1463345.982,528923.6107,Mecklenburg,35.189839,-80.796346
295,LDNP,Lake Davidson Nature Preserve,750 JETTON ST,750,,JETTON,ST,,DAVIDSON,NC,28036,Nature Preserve,General,Developed,North,,,,7048923349,,,,District 1,,,,1446084.91,643443.4135,Davidson,35.502648,-80.860931
87,HARP,Harrisburg Road Park,7701 HARRISBURG RD,7701, ,HARRISBURG,RD, ,CHARLOTTE,NC,28215,Neighborhood,General,Developed,South,,,,9803141003,,,District 5,District 4,1998/07/28 00:00:00+00,,,1496390.437,539205.7198,Mecklenburg,35.220315,-80.687039
98,WILG,Park on Wilgrove,7750 JIM HARPER LN,7750,,JIM HARPER,LN,,MINT HILL,NC,28227,Town Park,General,Developed,South,,,,7045459726,,,,District 6,,,,1505268.292,528105.9026,Mint Hill,35.188274,-80.658331
3,CTMY,C.T. Myers Golf Course,7817 HARRISBURG RD,7817, ,HARRISBURG,RD, ,CHARLOTTE,NC,28215,Golf Course,Golf,Developed,South,,,,9803141003,,,District 5,District 4,2002/03/18 00:00:00+00,,,1496508.108,539832.7766,Mecklenburg,35.220315,-80.687039
294,CHAS,Charles Avenue Park,800 CHARLES AV,800, ,CHARLES,AV, ,CHARLOTTE,NC,28205,Neighborhood,General,Developed,Central,,,,9803141002,,,District 1,District 4,1998/07/28 00:00:00+00,,,1460277.961,548213.0956,Mecklenburg,35.188274,-80.658331
125,MARS,Marshall Park,800 E 3RD ST,0, , , , ,CHARLOTTE,NC,28202,Neighborhood,General,Developed,Central,,,,9803141002,,,District 1,District 4,2009/04/24 00:00:00+00,,,1450791.701,540101.0559,Mecklenburg,35.221763,-80.687468
63,AQUA,Mecklenburg County Aquatic Center,800 E MARTIN LUTHER KING JR BV,800,E,MARTIN LUTHER KING JR,BV, ,CHARLOTTE,NC,28202,Aquatic Center,Sports,Developed,Central,,,,9803143483,,,District 1,District 4,2002/03/18 00:00:00+00,,,1450347.383,539157.2422,Mecklenburg,35.242567,-80.807819
278,SUNH,Sunset Hills Golf Course,800 RADIO RD,800, ,RADIO,RD, ,CHARLOTTE,NC,28216,Golf Course,Golf,Developed,North,,,,9803141001,,,,District 2,1998/07/28 00:00:00+00,,,1437141.011,571286.0144,Mecklenburg,35.219186,-80.838646
301,HACP,Harrisburg Road Sportsplex,8045 HARRISBURG RD,0, ,NO ADDRESS, , ,CHARLOTTE,NC,28215,Regional,General,Developed,South,,,,9803141003,,,District 5,District 4,2002/04/03 00:00:00+00,,,1497014.638,540819.5347,Mecklenburg,35.217319,-80.840706
329,MCTO,McIlwaine Park,8101 MCILWAINE RD,0, , , ,NO,HUNTERSVILLE,NC,28078,Regional,General,Undeveloped,North,,,,9803141001,,,,District 1,2012/07/25 00:00:00+00,,,1434385.496,603436.3759,Mecklenburg,35.308693,-80.887168
302,PENN,Charles and Ida Graham Park,8101 OLIVER HAGER RD,0, , , ,NO,HUNTERSVILLE,NC,28078,Town Park,General,Undeveloped,North,,,,7047662220,,,,District 1,2008/04/21 00:00:00+00,,,1433550.731,616092.1017,Huntersville,35.226937,-80.688285
20,EDGE,Edgehill Park,812 S EDGEHILL RD,812,S,EDGEHILL,RD,NO,CHARLOTTE,NC,28207,Neighborhood,General,Developed,Central,,,,9803141002,,,District 1,District 5,1998/07/28 00:00:00+00,,,1452965.177,533600.4483,Mecklenburg,35.202633,-80.8302
38,MCDP,McDowell Creek Park,8233 GILEAD RD,0, , , ,NO,HUNTERSVILLE,NC,28078,Neighborhood,General,Undeveloped,North,,,,9803141001,,,,District 1,2008/07/28 00:00:00+00,,,1437657.545,608366.9932,Mecklenburg,35.202633,-80.8302
69,MAYP,Mayerling Drive Park,8420 LAWYERS RD,0, ,NO ADDRESS, , ,CHARLOTTE,NC,28227,Neighborhood,General,Undeveloped,South,,,,9803141003,,,,District 6,2003/07/11 00:00:00+00,,,1491199.032,527559.9466,Mecklenburg,35.190216,-80.701739
226,WEAC,Westmoreland Athletic Complex,8430 WESTMORELAND RD,8430,,WESTMORELAND,RD,,CORNELIUS,NC,28031,Town Park,General,Developed,North,,,,7048926031,,,,District 1,,,,1438561.364,628117.8763,Cornelius,35.459893,-80.884125
79,MCCP,McAlpine Creek Park,8711 MONROE RD,8711, ,MONROE,RD, ,CHARLOTTE,NC,28212,Regional,General,Developed,South,,,,9803141003,,,District 6,District 4,2008/05/14 00:00:00+00,,,1478221.489,514435.2479,Mecklenburg,35.150876,-80.744933
331,RCCG,Reedy Creek Community Garden,8832 GRIER RD,8832,,GRIER,RD,,CHARLOTTE,NC,28215,Community Garden,Garden,Developed,North,,,,9803141001,,,District 4,District 3,2009/05/14 10:25:41+00,,,1486564.676,559132.9,Mecklenburg,35.274047,-80.720363
224,MHVP,Mint Hill Veterans Memorial Park,8850 FAIRVIEW RD,8850,,FAIRVIEW,RD,,MINT HILL,NC,28227,Town Park,General,Developed,South,,,,7045459726,,,,District 6,,,,1511681.909,524432.7346,Mint Hill,35.178978,-80.633671
180,WILM,Wilmore Park,900 SPRUCE ST,900, ,SPRUCE,ST, ,CHARLOTTE,NC,28203,Neighborhood,General,Developed,Central,,,,9803141002,,,District 3,District 2,1998/07/28 00:00:00+00,,,1442129.571,540638.2839,Mecklenburg,35.221282,-80.868448
119,EBMP,EB Moore Park,901 MARSH RD,901, ,MARSH,RD,NO,CHARLOTTE,NC,28209,Neighborhood,General,Developed,Central,,,,9803141002,,,District 1,District 4,1998/07/28 00:00:00+00,,,1444753.845,528449.9938,Mecklenburg,35.187891,-80.85837
250,PILP,Pineville Lake Park,909 LAKEVIEW DRIVE,909,,LAKEVIEW,DR,,PINEVILLE,NC,28134,Town Park,General,Developed,South,,,,7048892400,,,,District 6,,,,1433097.295,489221.5463,Pineville,35.079456,-80.895701
26,ABRP,Albemarle Road Park,9120 E W T HARRIS BV,9120,E,W T HARRIS,BV,NO,CHARLOTTE,NC,28227,Community,General,Developed,South,,,,9803141003,,,District 5,District 4,2002/03/18 00:00:00+00,,,1484195.618,530843.2177,Mecklenburg,35.195887,-80.726827
215,NEWP,Newell Park,9130 NEWELL BAPTIST CHURCH RD,9130, ,NEWELL BAPTIST CHURCH,RD, ,CHARLOTTE,NC,28213,Community,General,Developed,North,,,,9803141001,,,District 4,District 3,1998/08/12 00:00:00+00,,,1482307.75,563623.7502,Mecklenburg,35.287943,-80.735611
68,TOMH,Tom Hunter Park,919 TOM HUNTER RD,919, ,TOM HUNTER,RD, ,CHARLOTTE,NC,28213,Neighborhood,General,Developed,North,,,,9803141001,,,District 4,District 3,1998/07/28 00:00:00+00,,,1468324.171,560956.3476,Mecklenburg,35.27757,-80.782049
85,SUGP,Sugaw Creek Park,941 W SUGAR CREEK RD,941,W,SUGAR CREEK,RD, ,CHARLOTTE,NC,28213,Community,General,Developed,North,,,,9803141001,,,District 4,District 3,1998/07/28 00:00:00+00,,,1464549.743,558881.3564,Mecklenburg,35.273184,-80.79412
274,SUGC,Sugaw Creek Recreation Center,943 W SUGAR CREEK RD,943,W,SUGAR CREEK,RD, ,CHARLOTTE,NC,28213,Recreation Center,RecCenter,Developed,North,,,,9803141001,,,District 1,District 3,1998/07/28 00:00:00+00,,,1463875.508,558915.3095,Mecklenburg,35.272471,-80.796266
185,CLWD,Shuffletown Park,9530 BELLHAVEN BV,0, ,NO ADDRESS, , ,CHARLOTTE,NC,28216,Community,General,Developed,North,,,,9803141001,,,District 2,District 1,1998/08/12 00:00:00+00,,,1420082.321,575604.3038,Mecklenburg,35.318083,-80.942697
148,JWRC,JV Washam Recreation Center,9611 WESTMORELAND RD,9611,,WESTMORELAND,RD,,CORNELIUS,NC,28031,Recreation Center,RecCenter,Developed,North,,,,7048926031,,,,District 1,,,,1443751.425,629648.2329,Cornelius,35.46658,-80.867638
24,MTSP,Matthews-Sardis Park,9650 SARDIS RD,9650,,SARDIS,RD,,MATTHEWS,NC,28105,Town Park,General,Developed,South,,,,7043217275,,,,District 6,,,,1478847.283,502415.5918,Matthews,35.11901,-80.742956
304,CLAR,Clarks Creek Greenway Park,9715 MALLARD CREEK RD,0, , , ,NO,CHARLOTTE,NC,28269,Neighborhood,General,Developed,North,,,,9803141001,,,District 4,District 1,2015/07/07 00:00:00+00,,,1469677.975,579434.7592,Mecklenburg,35.334106,-80.773197
163,INPP,Independence Pointe Park,9902 INDEPENDENCE POINTE PY,0, , , ,NO,MATTHEWS,NC,28105,Town Park,General,Undeveloped,South,,,,7043217275,,,,District 6,2003/07/11 00:00:00+00,,,1487684.492,507491.6013,Matthews,35.132019,-80.713971
258,GATE,Iswa Nature Preserve,9909 WILKINSON BV,9701, ,WILKINSON,BV, ,CHARLOTTE,NC,28214,Nature Preserve,General,Developed,South,,,,9803141003,,,,District 2,1998/07/28 00:00:00+00,,,1401189,550085.0001,Mecklenburg,35.244845,-81.005747
109,ALHS,Alexandriana Historic Site,9921 OLD STATESVILLE RD,9921, ,OLD STATESVILLE,RD, ,CHARLOTTE,NC,28269,Historic,Historic,Developed,North,,,,9803141001,,,,District 1,2002/03/18 00:00:00+00,,,1456584.958,590193.8029,Mecklenburg,35.357772,-80.82343
